id,name,mail_address_1,mail_address_2,city,state,country,zip,phone,fitter,retailer,longitude,latitude,created_at,updated_at,place_id,website,formatted_address,google_places_name,email,duplicate_domain
1,Pete's Golf Shop,208 E Jericho Tpke,"Mineola, NY 11501-2034",Mineola,NY,UNITED STATES,11501-2034,516-248-6891,true,true,-73.629034,40.75325,2019-03-18 14:14:41 UTC,2019-03-26 15:46:57 UTC,ChIJ-e2QhJKHwokRxWdZFU1eBn4,http://www.petesgolf.com/,"208 E Jericho Turnpike, Mineola, NY 11501, USA",Pete's Golf Shop,info@petesgolf.com,false
2,The Golf Guys,3440 Renaissance Blvd Ste 8,"Bonita Springs, FL 34134-7004",Bonita Springs,FL,UNITED STATES,34134-7004,239-948-9840,true,true,-81.810141,26.388711,2019-03-18 14:14:41 UTC,2019-03-26 15:47:10 UTC,ChIJy2_BS24X24gRHqpi_CCNwiI,http://thegolfguysonline.com/,"3440 Renaissance Blvd UNIT 8, Bonita Springs, FL 34134, USA",Golf Guys The,not_found,false
4,Moon Golf,6300 N Wickham Rd Ste 124b,"Melbourne, FL 32940-2037",Melbourne,FL,UNITED STATES,32940-2037,321-752-0078,true,true,-80.674024,28.214302,2019-03-18 14:14:41 UTC,2019-03-28 12:17:16 UTC,ChIJI-aEGwIF3ogRvW0IFeNnm0w,http://www.moongolf.com/,"6300 N Wickham Rd #124b, Melbourne, FL 32940, USA",Moon Golf- Melbourne,contact@moongolf.com,true
5,Summit Golf School,18 Augusta Pines Dr,"Spring, TX 77389-3592",Spring,TX,UNITED STATES,77389-3592,281-516-1002,true,true,-95.53844,30.12935,2019-03-18 14:14:41 UTC,2019-03-26 15:58:46 UTC,ChIJve5fkCEyR4YR3BR_IGtdb_k,http://www.summitgolfschool.com/,"18 Augusta Pines Dr Suite 1000, Spring, TX 77389, USA",Summit Golf School,not_found,false
6,Army Navy Country Club,1700 Army Navy Dr,"Arlington, VA 22202-1640",Arlington,VA,UNITED STATES,22202-1640,703-979-5826,true,true,-77.069472,38.859364,2019-03-18 14:14:41 UTC,2019-03-26 15:58:55 UTC,ChIJhyJRmcm2t4kR6-GoE8MCG7c,http://www.ancc.org/,"1700 Army Navy Dr, Arlington, VA 22202, USA",Army Navy Country Club,not_found,false
7,Haggin Oaks Golf Shop,3645 Fulton Ave,"Sacramento, CA 95821-1808",Sacramento,CA,UNITED STATES,95821-1808,916-808-2526,true,true,-121.402427,38.632613,2019-03-18 14:14:41 UTC,2019-03-26 15:58:56 UTC,ChIJg_XxlJ_ZmoARgJtUefSE2j0,http://www.hagginoaks.com/,"3645 Fulton Ave, Sacramento, CA 95821, USA",Haggin Oaks Golf Super Shop,contact@hagginoaks.com,false
8,PGA TOUR Superstore Greenwood Village,9451 E Arapahoe Rd,"Greenwood Village, CO 80112-3632",Greenwood Village,CO,UNITED STATES,80112-3632,720-266-2400,true,true,-104.878962,39.595139,2019-03-18 14:14:41 UTC,2019-03-26 15:59:00 UTC,ChIJu_RoOHeGbIcRxowsRvOywVQ,https://www.pgatoursuperstore.com/stores/greenwood-village-denver-colorado/0601.html,"9451 E Arapahoe Rd, Greenwood Village, CO 80112, USA",PGA TOUR Superstore,admin@pgatoursuperstore.com,false
9,Golf Headquarters,4610 N Garfield St Ste C3,"Midland, TX 79705-2654",Midland,TX,UNITED STATES,79705-2654,432-686-7367 ,true,true,-102.094682,32.068885,2019-03-18 14:14:41 UTC,2019-03-26 15:59:03 UTC,ChIJf3c9oNbY-4YRkxC96MRgxiE,https://www.shopgolfhq.com/,"4610 N Garfield St # C3, Midland, TX 79705, USA",Golf Headquarters,info@shopgolfhq.com,false
10,PGA TOUR Superstore Downers Grove,1017 Butterfield Rd,"Downers Grove, IL 60515-1007",Downers Grove,IL,UNITED STATES,60515-1007,630-824-2080,true,true,-88.013235,41.834961,2019-03-18 14:14:41 UTC,2019-03-26 15:59:05 UTC,ChIJhY0nKghSDogRhh2tC1CTnSU,https://www.pgatoursuperstore.com/stores/downers-grove-illinois/0702.html,"1017 Butterfield Rd, Downers Grove, IL 60515, USA",PGA TOUR Superstore,contact@pgatoursuperstore.com,false
11,Bobick's Golf,5200 Bluffton Rd,"Fort Wayne, IN 46809-2164",Fort Wayne,IN,UNITED STATES,46809-2164,260-747-4404,true,true,-85.168478,41.036107,2019-03-18 14:14:41 UTC,2019-03-26 15:59:26 UTC,ChIJ6UNS0pTlFYgRcAhy-hX8yPg,http://www.bobicksgolf.com/,"5200 Bluffton Rd, Fort Wayne, IN 46809, USA",Bobick's Golf Inc,not_found,false
12,Golf Capital Learning Center,200 Netherton Ln,"Crossville, TN 38555-2685",Crossville,TN,UNITED STATES,38555-2685,931-707-0711,true,true,-85.005615,35.957791,2019-03-18 14:14:41 UTC,2019-03-26 15:59:39 UTC,ChIJGaLRMTxXZ4gRdxzC7_qGNho,http://www.golfcapitaltn.com/programs/,"200 Netherton Ln, Crossville, TN 38555, USA",Golf Capital Learning Center,not_found,false
13,Miles of Golf,3113 Carpenter Rd,"Ypsilanti, MI 48197-9603",Ypsilanti,MI,UNITED STATES,48197-9603,734-973-9004,true,true,-83.612994,42.24115,2019-03-18 14:14:41 UTC,2019-03-26 15:59:40 UTC,ChIJtRNaeTSvPIgR9PJNZwMvqic,http://www.milesofgolf.com/,"3113 Carpenter Rd, Ypsilanti, MI 48197, USA",Miles of Golf,info@milesofgolf.com,false
14,Carls Golfland Inc,1976 S Telegraph Rd,"Bloomfield Hills, MI 48302-0245",Bloomfield Hills,MI,UNITED STATES,48302-0245,248-335-8095,true,true,-83.303251,42.609231,2019-03-18 14:14:41 UTC,2019-03-28 12:17:16 UTC,ChIJGYJAXsK-JIgRJR4NxZPfvn8,http://www.carlsgolfland.com/,"1976 S Telegraph Rd, Bloomfield Hills, MI 48302, USA",Carl's Golfland,admin@carlsgolfland.com,true
15,Van's Golf Shops - Scottsdale,8720 E Frank Lloyd Wright Blvd,"Scottsdale, AZ 85260-1926",Scottsdale,AZ,UNITED STATES,85260-1926,480-483-1800,true,true,-111.892739,33.630513,2019-03-18 14:14:41 UTC,2019-03-26 15:59:48 UTC,ChIJQyIHoMh1K4cRkC2P5s9rgJ0,https://www.worldwidegolfshops.com/locations/van-s-golf-shops-scottsdale-8720-e--frank-lloyd-wright-blvd.html,"8720 E. Frank Lloyd Wright Blvd, Scottsdale, AZ 85260, USA",Van's Golf Shops,not_found,false
16,Valley Golf Center,12247 W Indian School Rd,"Avondale, AZ 85392-5646",Avondale,AZ,UNITED STATES,85392-5646,623-935-9351,true,true,-112.322572,33.491581,2019-03-18 14:14:41 UTC,2019-03-28 12:17:16 UTC,ChIJXz5nja9AK4cR1JnJwufKTHo,http://www.valleygolfcenteraz.com/,"12247 W Indian School Rd, Avondale, AZ 85392, USA",Valley Golf Center,contact@valleygolfcenteraz.com,true
18,Corsis Indoor Golf Inc,929 E Pittsburgh St,"Greensburg, PA 15601-3503",Greensburg,PA,UNITED STATES,15601-3503,724-850-2400,true,true,-79.51738,40.303166,2019-03-18 14:14:41 UTC,2019-03-26 15:59:52 UTC,ChIJIWxh4zTQNIgR6YEnM7NnrGo,http://www.corsisgolf.com/,"929 E Pittsburgh St, Greensburg, PA 15601, USA",Corsi's Indoor Golf Inc,contact@corsisgolf.com,false
19,Carlsbad Golf Center,2711 Haymar Dr,"Carlsbad, CA 92008-1260",Carlsbad,CA,UNITED STATES,92008-1260,760-720-4653,true,true,-117.319823,33.18079,2019-03-18 14:14:41 UTC,2019-03-26 16:00:12 UTC,ChIJ3aeuL4Fx3IARdSuZe2SjHj0,http://www.carlsbadgolfcenter.com/,"2711 Haymar Dr, Carlsbad, CA 92010, USA",Carlsbad Golf Center,info@carlsbadgc.com,false
20,Roger Dunn - Santa Ana,1421 Village Way,"Santa Ana, CA 92705-4714",Santa Ana,CA,UNITED STATES,92705-4714,714-558-0074,true,true,-117.834693,33.730013,2019-03-18 14:14:41 UTC,2019-03-26 16:00:16 UTC,ChIJr8bPTlnZ3IAR8V9VYqXbVlY,https://www.worldwidegolfshops.com/locations/roger-dunn-golf-shops-santa-ana-1421-village-way.html,"1421 Village Way, Santa Ana, CA 92705, USA",Roger Dunn Golf Shops,not_found,false
21,Low Country Custom Golf,1137 Johnnie Dodds Blvd,"Mount Pleasant, SC 29464-3101",Mount Pleasant,SC,UNITED STATES,29464-3101,843-442-2160 ,true,true,-79.858367,32.811527,2019-03-18 14:14:41 UTC,2019-03-28 12:27:15 UTC,ChIJNRsq5ZBx_ogRE5bU3dhA5rs,http://www.lowcountrycustomgolf.com/,"1137 Johnnie Dodds Blvd, Mt Pleasant, SC 29464, USA",David Ayres' Lowcountry Custom Golf,contact@lowcountrycustomgolf.com,false
22,Golf Care Center,4853 Cordell Ave,"Bethesda, MD 20814-7015",Bethesda,MD,UNITED STATES,20814-7015,301-652-6094,true,true,-77.098152,38.990172,2019-03-18 14:14:41 UTC,2019-03-28 12:27:20 UTC,ChIJQ7LS4mPJt4kR34rLKGbTxp8,http://www.golfcarecenter.com/,"4828 Del Ray Ave, Bethesda, MD 20814, USA",Golf Care Center Inc,contact@golfcarecenter.com,false
23,Edwin Watts Golf - Orlando,7501 Turkey Lake Rd,"Orlando, FL 32819-5223",Orlando,FL,UNITED STATES,32819-5223,407-345-8451 ,true,true,-81.475471,28.455127,2019-03-18 14:14:41 UTC,2019-03-28 12:27:27 UTC,ChIJmXD16wF_54gRJRJl59JdgxQ,https://www.worldwidegolfshops.com/locations/edwin-watts-golf-orlando-7501-turkey-lake-rd-.html,"7501 Turkey Lake Rd, Orlando, FL 32819, USA",Edwin Watts Golf,not_found,false
24,Pennington Golf Center,29 Route 31 S,"Pennington, NJ 08534-2507",Pennington,NJ,UNITED STATES,08534-2507,609-737-2244,true,true,-74.79812,40.322247,2019-03-18 14:14:41 UTC,2019-03-28 12:27:40 UTC,ChIJb1ljWMP8w4kR2KRF_0Mk8cY,http://www.penningtongolfcenter.com/,"29 NJ-31, Pennington, NJ 08534, USA",Pennington Golf Center,not_found,false
25,Perfect Swing Golf,33 Main St,"Toms River, NJ 08753-7435",Toms River,NJ,UNITED STATES,08753-7435,(732) 503-4709,true,true,-74.197889,39.952398,2019-03-18 14:14:41 UTC,2019-03-28 12:27:48 UTC,ChIJ0Ubky6CCwYkRexuLSYDLDtI,http://www.perfectswinggolf.com/site/,"33 N Main St, Toms River, NJ 08753, USA",Perfect Swing Golf,not_found,false
26,Fiddlers Green Golf Co Inc,91292 Highway 99 N,"Eugene, OR 97402-9651",Eugene,OR,UNITED STATES,97402-9651,541-689-8464,true,true,-123.200452,44.148365,2019-03-18 14:14:41 UTC,2019-03-28 12:27:54 UTC,ChIJ7WzG1oUCwVQR-b76gPpUg2A,http://www.fiddlersgreen.com/,"91292 State Hwy 99 N, Eugene, OR 97402, USA",Fiddler's Green Golf Center,not_found,false
30,Golf USA,307 Fort Riley Blvd,"Manhattan, KS 66502-6357",Manhattan,KS,UNITED STATES,66502-6357,785-537-9235,true,true,-96.56089,39.17377,2019-03-18 14:14:41 UTC,2019-03-28 12:27:59 UTC,ChIJaYdbiwnNvYcRXLUTEMcb91U,http://golfusamanhattan.com/,"307 Fort Riley Blvd, Manhattan, KS 66502, USA",Golf USA,not_found,false
31,Ball Golf Academy and Range,7501 N Robinson Ave,"Oklahoma City, OK 73116-7760",Oklahoma City,OK,UNITED STATES,73116-7760,405-842-2626,true,true,-97.514805,35.547512,2019-03-18 14:14:41 UTC,2019-03-28 12:28:02 UTC,ChIJQ2D5UYIZsocR4jEvalR0t0U,http://ballgolf.com/,"7501 N Robinson Ave, Oklahoma City, OK 73116, USA",Ball Golf Center,not_found,false
33,Lennys Golf Shop,2601 S Parker Rd,"Aurora, CO 80014-1617",Aurora,CO,UNITED STATES,80014-1617,303-369-5900,true,true,-104.864582,39.669136,2019-03-18 14:14:41 UTC,2019-03-28 12:28:13 UTC,ChIJgwyGDPSHbIcROfPRD7n0dRA,http://www.lennysskiandgolf.com/,"2601 Parker Rd, Aurora, CO 80014, USA",Lenny's Golf Shop,not_found,false
34,Poe Golf Co,17 S Fourth St,"Columbia, MO 65201-4226",Columbia,MO,UNITED STATES,65201-4226,573-445-7546,true,true,-92.333164,38.951314,2019-03-18 14:14:41 UTC,2019-03-28 12:28:26 UTC,ChIJJQDFdXzK3IcR-rhFWi_QzzQ,http://www.poegolf.com/,"17 S 4th St, Columbia, MO 65201, USA",Poe Golf Company,not_found,false
36,Rochester Indoor Golf Ctr,1642 Highway 52 N Hillcrest Shopping Ctr,"Rochester, MN 55901-1664",Rochester,MN,UNITED STATES,55901-1664,507-529-0223,true,true,-92.509891,44.078055,2019-03-18 14:14:41 UTC,2019-03-28 12:28:36 UTC,ChIJd44EHaVf94cRjEQt4Mybunc,http://www.rochesterindoorgolfcenter.com/,"1642 US-52, Rochester, MN 55901, USA",Rochester Indoor Golf Center,not_found,false
37,Pro Am Golf,3174 S Brentwood Blvd,"Saint Louis, MO 63119-1743",Saint Louis,MO,UNITED STATES,63119-1743,314-781-7775 ,true,true,-90.35141,38.60296,2019-03-18 14:14:41 UTC,2019-03-28 12:28:38 UTC,ChIJBdGrdpHL2IcRvGdj2NCJ5ts,https://www.proamgolfusa.com/,"3174 S Brentwood Blvd, St. Louis, MO 63119, USA",Pro Am Golf USA,info@proamgolfusa.com,false
38,Lous Golf Shop,1405 W Frankford Rd Ste 107,"Carrollton, TX 75007-4900",Carrollton,TX,UNITED STATES,75007-4900,972-446-1418,true,true,-96.920801,32.996804,2019-03-18 14:14:41 UTC,2019-03-28 12:28:42 UTC,ChIJYYSSf_UlTIYRPnk31507YB8,http://lousgolf.com/,"1405 W Frankford Rd #107, Carrollton, TX 75007, USA",Lou's Golf Shop,not_found,false
39,Ultimate Golf,7203 Kingery Hwy,"Willowbrook, IL 60527-7561",Willowbrook,IL,UNITED STATES,60527-7561,630-323-1244,true,true,-87.943882,41.756637,2019-03-18 14:14:41 UTC,2019-03-28 12:29:02 UTC,ChIJOT2Oc0ZPDogRKR29Ud2Y0ew,http://www.ultimategolfillinois.com/,"7203 Kingery Hwy, Willowbrook, IL 60527, USA",Ultimate Golf,not_found,false
41,The Golf Complex,5980 Us Highway 60 W,"Paducah, KY 42001-9647",Paducah,KY,UNITED STATES,42001-9647,270-442-9221 ,true,true,-88.600048,37.083389,2019-03-18 14:14:41 UTC,2019-03-28 12:29:04 UTC,ChIJq6qqensceogROsFdfsKk08k,http://www.thegolfcomplex.com/,"5980 US-60, Paducah, KY 42001, USA",Golf Complex,contact@thegolfcomplex.com,false
42,Des Plaines Golf Center,353 N River Rd,"Des Plaines, IL 60016-1210",Des Plaines,IL,UNITED STATES,60016-1210,847-803-4757 ,true,true,-87.888214,42.057689,2019-03-18 14:14:41 UTC,2019-03-28 12:29:22 UTC,ChIJaSECNIe3D4gRCOY06mHXmCA,http://www.golfcenterdesplaines.com/,"353 N River Rd, Des Plaines, IL 60016, USA",Golf Center Des Plaines,store@golfcenterdesplaines.com,false
43,Golf Galaxy Austin Aroboretum,10001 Research Blvd,"Austin, TX 78759-5689",Austin,TX,UNITED STATES,78759-5689,512-502-9231,true,true,-97.74516,30.39214,2019-03-18 14:14:41 UTC,2019-03-28 12:29:23 UTC,ChIJxfzTt4HMRIYRReXTp9_z2LQ,https://stores.golfgalaxy.com/tx/austin/3201/?seo=localpack,"10001 Research Blvd, Austin, TX 78759, USA",Golf Galaxy,contact@golfgalaxy.com,false
44,Golf School of Indiana,7000 Longest Dr,"Carmel, IN 46033-8829",Carmel,IN,UNITED STATES,46033-8829,317-750-4715 ,true,true,-85.99836,40.00623,2019-03-18 14:14:41 UTC,2019-03-28 12:29:28 UTC,ChIJf5V03MKzFIgRDzkTPuNAtH0,http://www.golfschoolofindiana.com/,"7000 Longest Dr, Carmel, IN 46033, USA",Golf School of Indiana,info@golfschoolofindiana.com,false
45,Woodforest Golf Club,1199 Fish Creek Thoroughfare,"Montgomery, TX 77316-6944",Montgomery,TX,UNITED STATES,77316-6944,936-588-8800,true,true,-95.567404,30.268019,2019-03-18 14:14:41 UTC,2019-03-28 12:29:40 UTC,ChIJxQD9QtUkR4YRKxJJOjCLDLI,http://www.woodforestgolf.com/,"1199 Fish Creek Thoroughfare, Montgomery, TX 77316, USA",Woodforest Golf Club,not_found,false
46,Mk Golf Technologies,10412 Gulfdale St,"San Antonio, TX 78216-4129",San Antonio,TX,UNITED STATES,78216-4129,210-392-4858,true,true,-98.486984,29.535184,2019-03-18 14:14:41 UTC,2019-03-28 12:29:45 UTC,ChIJ44e-io1hXIYRfVpeoD7p548,https://www.mkgolftech.com/,"10412 Gulfdale St, San Antonio, TX 78216, USA",MK Golf Tech,info@mkgolftech.com,false
47,Inverness Golf and Repair Inc,4647-d Us Hwy 280,"Birmingham, AL 35242",Birmingham,AL,UNITED STATES,35242,205-991-1008,true,true,-86.681253,33.416552,2019-03-18 14:14:41 UTC,2019-03-28 12:29:50 UTC,ChIJH4SzK7MXiYgRKHm9e58sJsk,http://invernessgolfbham.com/,"4647 US-280 D, Birmingham, AL 35242, USA",Inverness Golf & Repair,not_found,false
48,Hornacek's House of Golf Inc,23587 N Scottsdale Rd Ste C4,"Scottsdale, AZ 85255-3470",Scottsdale,AZ,UNITED STATES,85255-3470,480-502-0555,true,true,-111.833011,33.6803,2019-03-18 14:14:41 UTC,2019-03-28 12:29:54 UTC,ChIJRSSLEBR3K4cRY91kZ2Vqk_I,http://hornaceksgolf.com/,"23587 N Scottsdale Rd, Scottsdale, AZ 85255, USA",Hornacek's Golf,not_found,false
50,All About Golf,1828 E University Dr Ste 7,"Tempe, AZ 85281-4275",Tempe,AZ,UNITED STATES,85281-4275,480-699-7863,true,true,-111.90735,33.422565,2019-03-18 14:14:41 UTC,2019-03-28 12:29:57 UTC,ChIJ78CBy_kIK4cRnfITs0b9Us4,http://allaboutgolf.com/,"1828 E University Dr Suite #7, Tempe, AZ 85281, USA",All About Golf,not_found,false
51,Golf Galaxy Chandler,880 N 54th St,"Chandler, AZ 85226-1504",Chandler,AZ,UNITED STATES,85226-1504,480-705-6771,true,true,-111.9709,33.31735,2019-03-18 14:14:41 UTC,2019-03-28 12:29:58 UTC,ChIJg-lQSDwEK4cRLL5RehBaBS8,https://stores.golfgalaxy.com/az/chandler/3212/?seo=localpack,"880 N 54th St, Chandler, AZ 85226, USA",Golf Galaxy,contact@golfgalaxy.com,false
52,Windmill Golf Center,1511 E Aurora Rd,"Macedonia, OH 44056-1917",Macedonia,OH,UNITED STATES,44056-1917,330-467-6425,true,true,-81.485723,41.316292,2019-03-18 14:14:41 UTC,2019-03-28 12:30:03 UTC,ChIJKetVXLsfMYgR3hHOjbLQqz0,http://www.windmillgolfcenter.com/,"1511 E Aurora Rd, Macedonia, OH 44056, USA",Windmill Golf Center,not_found,false
53,Idle Hour Country Club Pro Shop,251 Idle Hour Dr,"Macon, GA 31210-4701",Macon,GA,UNITED STATES,31210-4701,478-477-8777,true,true,-83.712232,32.867128,2019-03-18 14:14:41 UTC,2019-03-28 12:30:09 UTC,ChIJN4SAfAX584gRx25qXr115LE,http://www.idlehourclub.com/,"251 Idle Hour Dr, Macon, GA 31210, USA",Idle Hour Golf & Country Club,not_found,false
54,Golf Galaxy Robinson,6530 Steubenville Pike,"Pittsburgh, PA 15205-1006",Pittsburgh,PA,UNITED STATES,15205-1006,412-809-0392,true,true,-80.161246,40.449622,2019-03-18 14:14:41 UTC,2019-03-28 12:30:10 UTC,ChIJSUHQXTdZNIgRSpPrqSgwbF4,https://stores.golfgalaxy.com/pa/pittsburgh/602/?seo=localpack,"6530 Steubenville Pike, Pittsburgh, PA 15205, USA",Golf Galaxy,contact@golfgalaxy.com,false
55,Continental Golf,1401 Capital Blvd,"Raleigh, NC 27603-1119",Raleigh,NC,UNITED STATES,27603-1119,919-833-8887 ,true,true,-78.630639,35.801627,2019-03-18 14:14:41 UTC,2019-03-28 12:30:29 UTC,ChIJYXyv5DZfrIkRAYqUfWLIQiE,http://www.continentalgolf.net/,"1401 Capital Blvd, Raleigh, NC 27603, USA",Continental Golf,not_found,false
56,PGA TOUR Superstore Jacksonville,Suite 300 4906 Town Center Pkwy,"Jacksonville, FL 32246",Jacksonville,FL,UNITED STATES,32246,904-380-4400,true,true,-81.53497,30.25475,2019-03-18 14:14:41 UTC,2019-03-28 12:30:29 UTC,ChIJewZeHF-15YgReNqeRFZHtP8,https://www.pgatoursuperstore.com/stores/jacksonville-florida/1209.html,"4906 Town Center Pkwy #300, Jacksonville, FL 32246, USA",PGA TOUR Superstore,contact@pgatoursuperstore.com,false
57,Golf Shoppe at Sittler,15475 Kutztown Rd,"Kutztown, PA 19530-9348",Kutztown,PA,UNITED STATES,19530-9348,610-683-7232,true,true,-75.737252,40.536297,2019-03-18 14:14:41 UTC,2019-03-28 12:30:41 UTC,ChIJA4rz9JXSxYkRBalD48A4Q7c,http://www.sittlergolf.com/,"15475 Kutztown Rd, Kutztown, PA 19530, USA",Sittler Golf Center,not_found,false
58,Keplers Golf,2329 Boulevard Cir,"Walnut Creek, CA 94595-1101",Walnut Creek,CA,UNITED STATES,94595-1101,925-932-8179,true,true,-122.072349,37.895675,2019-03-18 14:14:41 UTC,2019-03-28 12:30:46 UTC,ChIJMxjxYe1hhYAR35rcCxeun1U,http://www.keplersgolf.com/,"2329 Boulevard Cir, Walnut Creek, CA 94595, USA",Kepler's Golf Repair,not_found,false
59,Redtail Golf Center,8200 Sw Scholls Ferry Rd,"Beaverton, OR 97008-6609",Beaverton,OR,UNITED STATES,97008-6609,503-646-5166,true,true,-122.779301,45.460097,2019-03-18 14:14:41 UTC,2019-03-28 12:30:50 UTC,ChIJTYBlhF4MlVQRNsfuceXAjto,http://golfredtail.com/,"8200 SW Scholls Ferry Rd, Beaverton, OR 97008, USA",RedTail Golf Center,not_found,false
60,Pro Golf Discount Inc,13405 Se 30th St Ste 1a,"Bellevue, WA 98005-4412",Bellevue,WA,UNITED STATES,98005-4412,425-401-0388,true,true,-122.161514,47.582967,2019-03-18 14:14:41 UTC,2019-03-28 12:30:51 UTC,ChIJewzdIANskFQRdJK_DL3ZQHw,https://www.golfdiscount.com/,"13405 SE 30th St Suite 1A, Bellevue, WA 98005, USA",Golf Discount,contact@golfdiscount.com,false
61,Puetz Tukwila,402 Strander Blvd,"Tukwila, WA 98188-2919",Tukwila,WA,UNITED STATES,98188-2919,206-439-1740 STORE,true,true,-122.25148,47.456337,2019-03-18 14:14:41 UTC,2019-03-28 12:31:09 UTC,ChIJXznC49ZckFQR-WSAf_8w5ys,http://www.puetzgolf.com/puetz-golf-tukwila-superstore,"402 Strander Blvd, Tukwila, WA 98188, USA",Puetz Golf Tukwila Superstore,not_found,false
62,Northway Golf Center,1519 Crescent Rd,"Halfmoon, NY 12065-7891",Halfmoon,NY,UNITED STATES,12065-7891,518-371-3141,true,true,-73.764941,42.82179,2019-03-18 14:14:41 UTC,2019-03-28 12:31:29 UTC,ChIJw9QSqMoT3okR3c9-R9FNYy8,http://www.northway8golf.com/,"1519 Crescent Rd, Clifton Park, NY 12065, USA",Northway Golf Center,not_found,false
63,Performance Clubworks,1 Sand Cut Rd,"Brookfield, CT 06804-2600",Brookfield,CT,UNITED STATES,06804-2600,203-778-2777,true,true,-73.400307,41.436935,2019-03-18 14:14:41 UTC,2019-03-28 12:31:46 UTC,ChIJH9OsrhX554kRFOE8a2zG8Ds,http://www.performanceclubworks.com/,"1 Sand Cut Rd, Brookfield, CT 06804, USA",Performance Clubworks,not_found,false
64,Chris Cotes Golf Shop,750 Portland Cobalt Rd,"Portland, CT 06480-1760",Portland,CT,UNITED STATES,06480-1760,860-342-2226 ,true,true,-72.613034,41.573684,2019-03-18 14:14:41 UTC,2019-03-28 12:31:48 UTC,ChIJvYDES4Gp54kRGg0zGjEMf3k,http://www.chriscotegolf.com/,"750 Portland-Cobalt Rd, Portland, CT 06480, USA",Chris Cote's Golf Shop,contact@chriscotegolf.com,false
65,Golf Services Inc,6958 W Main St,"Kalamazoo, MI 49009-8026",Kalamazoo,MI,UNITED STATES,49009-8026,269-372-5956,true,true,-85.686322,42.295762,2019-03-18 14:14:41 UTC,2019-03-28 12:31:57 UTC,ChIJLcR84rRwF4gRFEpFpyJPWFg,http://www.golf-services.com/,"6958 W Main St, Kalamazoo, MI 49009, USA",Golf Services,not_found,false
66,Sea Island Golf Club,100 Retreat Rd,"Saint Simons Island, GA 31522-2491",Saint Simons Island,GA,UNITED STATES,31522-2491,912-638-3611 ,true,true,-81.405707,31.139274,2019-03-18 14:14:41 UTC,2019-03-28 12:31:59 UTC,ChIJoYYstxTa5IgRklJlEmjpF6c,https://www.seaisland.com/performance-center/?utm_source=google&utm_medium=organic&utm_campaign=GMB,"100 Retreat Road, Saint Simons Island, GA 31522, USA",Sea Island Golf Performance Center,contact@seaisland.com,false
67,Golfdom,8203 Watson St,"Mclean, VA 22102-4402",Mclean,VA,UNITED STATES,22102-4402,703-790-8844,true,true,-77.227437,38.91802,2019-03-18 14:14:41 UTC,2019-03-28 12:32:13 UTC,ChIJmQam7u9KtokR6J6zxWXlmTM,http://www.golfdomgolf.com/,"8203 Watson St, McLean, VA 22102, USA",Golfdom,info@golfdomgolf.com,false
72,Koosa Golf - Lexington,5058 Sunset Blvd,"Lexington, SC 29072-9255",Lexington,SC,UNITED STATES,29072-9255,803-359-3333,true,true,-81.192851,34.009237,2019-03-18 14:14:41 UTC,2019-03-28 12:32:28 UTC,ChIJDzR7zI6X-IgRjCqJgk2Jc34,http://www.koosagolf.com/,"5058 Sunset Blvd, Lexington, SC 29072, USA",Koosa Golf - Lexington,not_found,false
74,St. Charles Country Club,100 Country Club Blvd,"Winnipeg, MB R3K1Z3",Winnipeg,MB,CANADA,R3K1Z3,204-888-8229 ,true,true,-97.285049,49.871057,2019-03-18 14:14:41 UTC,2019-03-28 12:32:30 UTC,ChIJud89onwL6lIRh0PYNRPnnEo,http://www.stcharlescountryclub.ca/,"100 Country Club Blvd, Winnipeg, MB R3K 1Z3, Canada",St Charles Country Club,contact@stcharlescountryclub.ca,false
77,Essex Golf & Country Club,7555 Matchette Road,"Windsor, ON N9J2S4",Windsor,ON,CANADA,N9J2S4,519-734-7816 ,true,true,-83.07597,42.216597,2019-03-18 14:14:41 UTC,2019-03-28 12:32:35 UTC,ChIJ8dZfGyowO4gRdijiE9JUtvo,http://www.essexgolf.com/,"7555 Matchette Rd, Windsor, ON N9J 2S4, Canada",Essex Golf & Country Club,contact@essexgolf.com,false
80,Sunningdale Golf & Country Club Ltd,465 Sunningdale Rd W,"London, ON N6G5B9",London,ON,CANADA,N6G5B9,519-660-8062 ,true,true,-81.306112,43.033246,2019-03-18 14:14:41 UTC,2019-03-28 12:32:38 UTC,ChIJKX0UT6bvLogR1zTSqOf1hwg,http://www.sunningdalegolf.com/,"465 Sunningdale Rd W, London, ON N6G 5B9, Canada",Sunningdale Golf & Country Club,contact@sunningdalegolf.com,false
81,Riverside Country Club,3180 Grasswood Rd W,"Corman Park, SK S7T1A1",Corman Park,SK,CANADA,S7T1A1,306-373-1292,true,true,-106.701663,52.052712,2019-03-18 14:14:41 UTC,2019-03-28 12:33:00 UTC,ChIJZ89i5GrwBFMR5t3XQEmiz_w,http://www.riversidecc.ca/,"3180 Grasswood Road West, Corman Park No. 344, SK S7T 1A1, Canada",Riverside Country Club,not_found,false
85,Paradise Canyon G & C,185 Canyon Blvd West,"Lethbridge, AB T1K 6V1",Lethbridge,AB,CANADA,T1K 6V1,403-381-4653,true,true,-112.846663,49.654869,2019-03-18 14:14:41 UTC,2019-03-28 12:33:08 UTC,ChIJK4HEN1OPblMRsXGp81d3xg4,http://www.playinparadise.com/,"185 Canyon Blvd W, Lethbridge, AB T1K 6V1, Canada",Paradise Canyon Golf Resort,not_found,false
86,Lethbridge CC,101 Country Club Rd,"Lethbridge, AB T1K 7N9",Lethbridge,AB,CANADA,T1K 7N9,403-327-6432,true,true,-112.844801,49.673351,2019-03-18 14:14:41 UTC,2019-03-28 12:33:11 UTC,ChIJwQgNU7aAblMRgPFXlMN57xE,https://lccgolf.com/,"101 Country Club Rd, Lethbridge, AB T1K, Canada",Lethbridge Country Club,not_found,false
87,Cambridge Golf & Fashion,611 Hespeler Rd,"Cambridge, ON N1R6J3",Cambridge,ON,CANADA,N1R6J3,519-622-3010,true,true,-80.32633,43.405141,2019-03-18 14:14:41 UTC,2019-03-28 12:33:14 UTC,ChIJ1ypFqZGHK4gRVs5LdqcjtpU,http://cambridgegolfclub.com/,"1346 Clyde Rd, Cambridge, ON N1R 5S7, Canada",Cambridge Golf Club,not_found,false
89,Burlington Golf & Country Club,422 North Shore Blvd E,"Burlington, ON L7T1W9",Burlington,ON,CANADA,L7T1W9,905-634-7726 ext. 239,true,true,-79.82756,43.309416,2019-03-18 14:14:41 UTC,2019-03-28 12:33:17 UTC,ChIJr2-Jm9idLIgRIZYc1znG_KQ,http://www.burlingtongolfclub.com/,"422 North Shore Blvd E, Burlington, ON L7T 1W9, Canada",Burlington Golf & Country Club,info@burlingtongolfclub.com,false
91,Brampton Golf Club,7700 Kennedy Road,"Brampton, ON L6W0A1",Brampton,ON,CANADA,L6W0A1,905-457-4443,true,true,-79.714043,43.669884,2019-03-18 14:14:41 UTC,2019-03-28 12:33:19 UTC,ChIJGfqiFPIVK4gRKrnTNPoPlUE,http://www.bramptongolf.com/,"7700 Kennedy Rd, Brampton, ON L6W 0A1, Canada",Brampton Golf Club,contact@bramptongolf.com,false
94,The Toronto Golf Club,1305 Dixie Rd,"Mississauga, ON L5E2P5",Mississauga,ON,CANADA,L5E2P5,905-278-1212 ,true,true,-79.55067,43.59381,2019-03-18 14:14:41 UTC,2019-03-28 12:33:26 UTC,ChIJcX9YsHZIK4gROJAmc7uK2Ng,http://www.torontogolfclub.com/,"1305 Dixie Rd, Mississauga, ON L5E 2P5, Canada",Toronto Golf Club,not_found,false
98,Weston Golf Club,50 Saint Phillips Rd,"Etobicoke, ON M9P2N6",Etobicoke,ON,CANADA,M9P2N6,416-241-5254 ,true,true,-79.53292,43.70395,2019-03-18 14:14:41 UTC,2019-03-28 12:33:32 UTC,ChIJU0gIqLkwK4gR_k2PB_RqHl8,http://www.westongolfcc.com/,"50 St Phillips Rd, Etobicoke, ON M9P 2N6, Canada",Weston Golf & Country Club,not_found,false
101,Thornhill Golf & Country Club,7994 Yonge St,"Thornhill, ON L4J1W3",Thornhill,ON,CANADA,L4J1W3,905-881-3000 ,true,true,-79.42723,43.82106,2019-03-18 14:14:41 UTC,2019-03-28 12:33:36 UTC,ChIJdc0z2WUsK4gRqtcoZ7mfKNw,http://thethornhillclub.ca/,"7994 Yonge St, Thornhill, ON L4J 1W3, Canada",The Thornhill Club,not_found,false
106,York Downs Golf & Country Club,4134 16th Ave,"Unionville, ON L3R0P1",Unionville,ON,CANADA,L3R0P1,905-477-2977 ,true,true,-79.326908,43.87687,2019-03-18 14:14:42 UTC,2019-03-28 12:33:42 UTC,ChIJRTUYVpjV1IkReKaBPLu65YE,http://www.yorkdowns.com/,"4134 16th Ave, Unionville, ON L3R 0P1, Canada",York Downs Golf and Country Club,not_found,false
107,The Scarboro Golf & Country Club,321 Scarborough Golf Club Rd,"Scarborough, ON M1J3H2",Scarborough,ON,CANADA,M1J3H2,416-266-4546 ,true,true,-79.21098,43.75296,2019-03-18 14:14:42 UTC,2019-03-28 12:33:47 UTC,ChIJq_pTTxLQ1IkRFoSkFytvhUI,http://www.scarborogolf.com/,"321 Scarborough Golf Club Rd, Scarborough, ON M1J 3H2, Canada",Scarboro Golf and Country Club,not_found,false
110,Lakeside Greens Golf & Country Club,555 Lakeside Greens Dr,"Chestermere, AB T1X 1C5",Chestermere,AB,CANADA,T1X 1C5,403-569-9111,true,true,-113.823548,51.044974,2019-03-18 14:14:42 UTC,2019-03-28 12:33:50 UTC,ChIJ6fVoOqx9cVMRbxf182Bj2dY,http://lakesidegreens.com/,"555 Lakeside Greens Dr, Chestermere, AB T1X 1C5, Canada",Lakeside Golf Club,not_found,false
112,Ted and Dave Custom Golf,7100 15 Street Se,"Calgary, AB T2H 2Z8",Calgary,AB,CANADA,T2H 2Z8,403-640-0082 ,true,true,-114.0259,50.99316,2019-03-18 14:14:42 UTC,2019-03-28 12:33:54 UTC,ChIJpaPL6JBwcVMR5IivBCyjamw,http://www.tdcustomgolf.com/,"7100 15 St SE, Calgary, AB T2H 2Z8, Canada",Ted & Dave Custom Golf,not_found,false
113,Canyon Meadows Golf & Country Club,12501 14 St S.w.,"Calgary, AB T2W 2Y8",Calgary,AB,CANADA,T2W 2Y8,403-281-1188 ,true,true,-114.096,50.94187,2019-03-18 14:14:42 UTC,2019-03-28 12:33:58 UTC,ChIJueiqaap2cVMRwxdQIOA6-So,http://www.canyonmeadowsgolf.com/,"12501 14 St SW, Calgary, AB T2W 2Y8, Canada",Canyon Meadows Golf and Country Club,admin@canyonmeadowsgolf.com,false
114,Calgary Golf & Country Club,913 50th Av Sw,"Calgary, AB T2H 1Y3",Calgary,AB,CANADA,T2H 1Y3,403-243-3084,true,true,-114.046651,50.990725,2019-03-18 14:14:42 UTC,2019-03-28 12:34:05 UTC,ChIJr2mDYq1xcVMRofbLlJJ3Ul8,http://www.cgandcc.com/,"5788 Station A, Calgary, AB T2H 1Y3, Canada",Calgary Golf & Country Club,not_found,false
116,Earl Grey Golf Club,6540 20 St S.w.,"Calgary, AB T3E 5L2",Calgary,AB,CANADA,T3E 5L2,403-249-5578,true,true,-114.109096,51.002538,2019-03-18 14:14:42 UTC,2019-03-28 12:34:08 UTC,ChIJG36lH6BxcVMRNgThB7CUUJg,http://www.earlgreygolfclub.com/,"6540 20 St SW, Calgary, AB T3E 5L2, Canada",Earl Grey Golf Club,info@earlgreygolfclub.com,false
117,Glencoe Golf and Country Club,31002 Elbow River Drive Sw,"Calgary, AB T3Z 2T8",Calgary,AB,CANADA,T3Z 2T8,403-571-0055 ,true,true,-114.0801,51.0289,2019-03-18 14:14:42 UTC,2019-03-28 12:34:11 UTC,ChIJBY-bpjxwcVMRpB4y3WyW6dA,http://glencoegolf.org/,"31002 Elbow River Dr, Calgary, AB T3Z 2T8, Canada",The Glencoe Golf & Country Club,not_found,false
118,Country Hills Golf Club,1334 Country Hills Blvd N.w.,"Calgary, AB T3K 5A9",Calgary,AB,CANADA,T3K 5A9,403-226-7777,true,true,-114.02501,51.154419,2019-03-18 14:14:42 UTC,2019-03-28 12:34:19 UTC,ChIJbV7B6WRmcVMRs2FwJUhD0rI,http://www.countryhills.ab.ca/,"1334 Country Hills Blvd NW, Calgary, AB T3K 5A9, Canada",Country Hills Golf Club,not_found,false
119,Priddis Greens Golf & Country Club,1 Priddis Greens Drive,"Priddis, AB T0L 1W0",Priddis,AB,CANADA,T0L 1W0,403-931-3316,true,true,-114.377453,50.892175,2019-03-18 14:14:42 UTC,2019-03-28 12:34:28 UTC,ChIJcx7UosQOcVMRV1ePu9rjiDU,http://www.priddisgreens.com/,"1 Priddis Greens Drive, Priddis, AB T0L 1W0, Canada",Priddis Greens Golf and Country Club,admin@priddisgreens.com,false
120,Elbow Springs Golf Club,240086 Lott Creek Blvd,"Calgary, AB T3Z 2V4",Calgary,AB,CANADA,T3Z 2V4,403-246-2828,true,true,-114.257603,51.014512,2019-03-18 14:14:42 UTC,2019-03-28 12:34:47 UTC,ChIJRRfxNHptcVMRy0KU2eNV1ik,http://www.elbowsprings.com/,"240086 Lott Creek Dr, Calgary, AB T3Z 2V4, Canada",Elbow Springs Golf Club,not_found,false
121,Pinebrook G&CC,166 Pinebrook Way S.w.,"Calgary, AB T3Z 3K3",Calgary,AB,CANADA,T3Z 3K3,403-246-3315,true,true,-114.2521,51.03119,2019-03-18 14:14:42 UTC,2019-03-28 12:34:54 UTC,ChIJgf1cJ6FtcVMRHH2rk1YIBBk,http://www.pinebrookgolfclub.com/,"166 Pinebrook Way, Calgary, AB T3Z 3K3, Canada",Pinebrook Golf & Country Club,not_found,false
122,Silver Springs Golf & Country Club,1600 Varsity Estates Dr N.w.,"Calgary, AB T3B 2W9",Calgary,AB,CANADA,T3B 2W9,403-286-1088 ,true,true,-114.1722,51.09754,2019-03-18 14:14:42 UTC,2019-03-28 12:34:57 UTC,ChIJGyGhLShvcVMROGHDHjM4jBU,http://www.silverspringsgolfclub.com/,"1600 Varsity Estates Dr NW, Calgary, AB T3B 2W9, Canada",Silver Springs Golf & Country Club,admin@silverspringsgolfclub.com,false
124,Stewart Creek Golf & C.C.,4100 Stewart Creek Dr,"Canmore, AB T1W 2V3",Canmore,AB,CANADA,T1W 2V3,403-609-6099,true,true,-115.313798,51.046027,2019-03-18 14:14:42 UTC,2019-03-28 12:35:04 UTC,ChIJq8NNqcLFcFMRsFwhjZDQI-8,http://www.stewartcreekgolf.com/,"4100 Stewart Creek Dr, Canmore, AB T1W 2V3, Canada",Stewart Creek Golf & Country Club,not_found,false
125,Canmore Pro Shop Ltd,2000 8th Av,"Canmore, AB T1W 1Y2",Canmore,AB,CANADA,T1W 1Y2,403-678-4785,true,true,-115.344521,51.088432,2019-03-18 14:14:42 UTC,2019-03-28 12:35:07 UTC,ChIJf-0OLKzFcFMRtGmEEN_TXiE,http://www.cansign.com/,"102 Bow Meadows Cr #1, Canmore, AB T1W 2W9, Canada",CanSign Inc. (Canmore Sign Co),info@cansign.com,false
127,Red Deer Discount Golf Center,#2b 2250 50th Ave,"Red Deer, AB T4R 1W5",Red Deer,AB,CANADA,T4R 1W5,403-341-4653 EXT 2,true,true,-113.815311,52.240158,2019-03-18 14:14:42 UTC,2019-03-28 12:35:13 UTC,ChIJbzZy1r5WdFMRXcWNHWU7Nno,http://www.reddeerdiscountgolf.ca/,"2250 - 50 Ave, #2B, Red Deer, AB T4R 1W5, Canada",Red Deer Discount Golf Centre Ltd,info@reddeerdiscountgolf.ca,false
131,Blackhawk Golf Club,51111 Range Road 255,"Spruce Grove, AB T7Y 1A8",Spruce Grove,AB,CANADA,T7Y 1A8,780-470-4790,true,true,-113.661306,53.385363,2019-03-18 14:14:42 UTC,2019-03-28 12:35:14 UTC,ChIJ4ZUy4CH0n1MRK_uJ6RVX-LA,http://www.playblackhawk.com/,"51111 Range Rd 255, Spruce Grove, AB T7Y 1A8, Canada",Blackhawk Golf Club,contact@playblackhawk.com,false
132,Deboer's Golf Shoppes & Training,5311 99 St N.w.,"Edmonton, AB T6E 5B7",Edmonton,AB,CANADA,T6E 5B7,780-430-8864,true,true,-113.485598,53.489095,2019-03-18 14:14:42 UTC,2019-03-28 12:35:34 UTC,ChIJL3B0yrUYoFMRkBebWLJeWsU,http://www.deboersgolf.com/,"5311 99 St NW, Edmonton, AB T6E 5B7, Canada",de Boer's Golf Shop & Fitting Centre Inc,not_found,false
133,The Derrick Golf & Winter Club,3500 119 St N.w.,"Edmonton, ON T6J5P5",Edmonton,ON,CANADA,T6J5P5,780-408-2880,true,true,-113.5397,53.46723,2019-03-18 14:14:42 UTC,2019-03-28 12:35:36 UTC,ChIJ3U1SvgkfoFMRCwG6SJw3vvs,http://www.derrickclub.com/,"3500 119 St NW, Edmonton, AB T6J 5P5, Canada",The Derrick Golf and Winter Club,contact@derrickclub.com,false
134,Windermere Golf & Country Club,19110 Ellerslie Rd S.w.,"Edmonton, AB T6W 1A5",Edmonton,AB,CANADA,T6W 1A5,780-988-5014 ,true,true,-113.6513,53.42717,2019-03-18 14:14:42 UTC,2019-03-28 12:35:37 UTC,ChIJ5YhyaKj1n1MRvHzsAoAe2Cg,http://www.windermeregcc.com/,"19110 Ellerslie Rd SW, Edmonton, AB T6W 1A5, Canada",Windermere Golf & Country Club,contact@windermeregcc.com,false
135,Edmonton Country Club,6201 Country Club Rd W,"Edmonton, AB T6M 2J6",Edmonton,AB,CANADA,T6M 2J6,780-448-1333 ,true,true,-113.5988,53.4902,2019-03-18 14:14:42 UTC,2019-03-28 12:35:56 UTC,ChIJpxYS9yMgoFMR2PDUBiVSbj8,https://www.edmontoncountryclub.com/CONTACT.aspx,"6201 Country Club Rd NW, Edmonton, AB T6M 2J6, Canada",Edmonton Country Club,not_found,false
139,Kevin Haime Golf Centre,560 Hazeldean Rd,"Stittsville, ON K2V1C4",Stittsville,ON,CANADA,K2V1C4,613-591-0006 ,true,true,-75.897693,45.29232,2019-03-18 14:14:42 UTC,2019-03-28 12:36:01 UTC,ChIJJ11y0HD_zUwRtqRLqELnWlQ,http://www.kevinhaime.com/,"560 Hazeldean Rd, Kanata, ON K2V 1C4, Canada",Kevin Haime Golf Centre,not_found,false
140,Royal Ottawa Golf Club,1405 Aylmer Rd,"Gatineau, QC J9H7L2",Gatineau,QC,CANADA,J9H7L2,819-777-0593 ,true,true,-75.76524,45.41515,2019-03-18 14:14:42 UTC,2019-03-28 12:36:04 UTC,ChIJHR-78pYDzkwR6udqf9RmjUg,http://royalottawagolfclub.com/,"1405 Chemin d'Aylmer, Gatineau, QC J9H 7L2, Canada",The Royal Ottawa Golf Club,not_found,false
144,Rivershore Golf Links,330 Rivershore Dr,"Kamloops, BC V2H1S1",Kamloops,BC,CANADA,V2H1S1,250-573-4622,true,true,-120.004894,50.653045,2019-03-18 14:14:42 UTC,2019-03-28 12:36:05 UTC,ChIJH9rhsubMf1MRHmR8E2lbjX8,http://www.rivershoregolflinks.com,"330 Rivershore Dr, Kamloops, BC V2H 1S1, Canada",Rivershore Estate & Golf Links,info@rivershoregolflinks.com,false
154,Meadows Golf Centre,19049 Lougheed Hwy,"Pitt Meadows, BC V3Y2J6",Pitt Meadows,BC,CANADA,V3Y2J6,604-465-8818,true,true,-122.698399,49.234635,2019-03-18 14:14:42 UTC,2019-03-28 12:36:09 UTC,ChIJud-6VErUhVQRUzIg6JsM58k,http://meadowsgolfcentre.com/,"19049 Lougheed Hwy, Pitt Meadows, BC V3Y 2J6, Canada",Meadows Golf Centre,not_found,false
156,Vancouver Golf Club,771 Austin Ave,"Coquitlam, BC V3K3N2",Coquitlam,BC,CANADA,V3K3N2,604-936-1131,true,true,-122.8789,49.24916,2019-03-18 14:14:42 UTC,2019-03-28 12:36:15 UTC,ChIJl0_VSUF4hlQRdd0UZDF6FHk,http://www.vancouvergolfclub.com/,"771 Austin Ave, Coquitlam, BC V3K 3N2, Canada",The Vancouver Golf Club,admin@vancouvergolfclub.com,false
160,Marine Drive Golf Club,7425 Yew St,"Vancouver, BC V6P6H1",Vancouver,BC,CANADA,V6P6H1,604-261-3212 ,true,true,-123.159159,49.217964,2019-03-18 14:14:42 UTC,2019-03-28 12:36:17 UTC,ChIJy4cxmJh0hlQRZprvdEg8ZOA,http://www.marine-drive.com/,"7425 Yew St, Vancouver, BC V6P 6H1, Canada",Marine Drive Golf Club,contact@marine-drive.com,false
161,Club De Golf Les Cedres,669 Coupland St,"Granby, QC J2H0P7",Granby,QC,CANADA,J2H0P7,450-372-0167,true,true,-72.671322,45.359329,2019-03-18 14:14:42 UTC,2019-03-28 12:36:20 UTC,ChIJvykBgF7QyUwRqdedSFPHwSo,http://golflescedres.com/,"669 Rue Coupland, Granby, QC J2H 0P7, Canada",Club De Golf Les Cedres,not_found,false
162,Capilano Golf & Country Club Ltd,420 Southborough Dr,"West Vancouver, BC V7S1M2",West Vancouver,BC,CANADA,V7S1M2,604-925-4653 ,true,true,-123.124632,49.353645,2019-03-18 14:14:42 UTC,2019-03-28 12:36:24 UTC,ChIJAe8kCMpvhlQRZLmQej2RLTU,http://capilanogolf.com/,"420 Southborough Drive, West Vancouver, BC V7S 1M2, Canada",Capilano Golf and Country Club,not_found,false
163,Shaughnessy Golf & Country Club,4300 Marine Dr S.w.,"Vancouver, BC V6N4A6",Vancouver,BC,CANADA,V6N4A6,604-266-6248 ,true,true,-123.225523,49.240896,2019-03-18 14:14:42 UTC,2019-03-28 12:36:27 UTC,ChIJb2gVVzZzhlQRW6FKTfIcqMY,http://www.shaughnessy.org/,"4300 SW Marine Dr, Vancouver, BC V6N 4A6, Canada",Shaughnessy Golf & Country Club,info@shaughnessy.org,false
164,Cowichan Golf & Country Club,4955 Trans Canada Hwy,"Duncan, BC V9L3X1",Duncan,BC,CANADA,V9L3X1,250-746-5333 ,true,true,-123.673017,48.754095,2019-03-18 14:14:42 UTC,2019-03-28 12:36:30 UTC,ChIJEcbqX8ZFj1QR4M7tSi3-Hjc,http://www.cowichangolfclub.ca/,"4955 Trans-Canada Hwy, Duncan, BC V9L 3X1, Canada",Cowichan Golf Club,info@cowichangolfclub.ca,false
165,Nicklaus North Golf Club,8080 Nicklaus North Blvd,"Whistler, BC V0N1B8",Whistler,BC,CANADA,V0N1B8,604-938-9898,true,true,-122.948926,50.142437,2019-03-18 14:14:42 UTC,2019-03-28 12:36:36 UTC,ChIJM_SYhmA7h1QR9TxWqq4x4pc,https://www.nicklausnorth.com/,"8080 Nicklaus N Blvd, Whistler, BC V0N 1B0, Canada",Nicklaus North Golf Course,not_found,false
166,Club De Golf Drummondville,400 Chemin Du Golf,"Drummondville, QC J2C8S9",Drummondville,QC,CANADA,J2C8S9,819-472-7093,true,true,-72.500831,45.900434,2019-03-18 14:14:42 UTC,2019-03-28 12:36:40 UTC,ChIJD-XMiSwSyEwRLBqGnWKWNa4,http://www.golfdrummond.com/,"400 Chemin du Golf, Drummondville, QC J2C 8S9, Canada",Club de Golf Drummondville,info@golfdrummond.com,false
168,Club De Golf Du Bic,150 Route Du Golf,"Rimouski, QC G0L1B0",Rimouski,QC,CANADA,G0L1B0,418-736-5323,true,true,-68.716283,48.376716,2019-03-18 14:14:42 UTC,2019-03-28 12:37:01 UTC,ChIJCWJtfjzdlUwRfU7yMVqrnYg,http://www.clubdegolfbic.com/,"150 Route du Golf-du-Bic, Le Bic, QC G0L 1B0, Canada",Club de Golf de Bic Inc,not_found,false
170,Golf Central,201 Chain Lake Drive #26,"Halifax, NS B3S1C8",Halifax,NS,CANADA,B3S1C8,902-450-4653 ,true,true,-63.671293,44.637731,2019-03-18 14:14:42 UTC,2019-03-28 12:37:05 UTC,ChIJ-4fR6jggWksRCYKSJbrBmxs,http://www.golfcentral.ns.ca/,"201 Chain Lake Dr, Halifax, NS B3S 1C8, Canada",Golf Central,not_found,false
172,Niakwa Country Club,620 Niakwa Rd,"Winnipeg, MB R2J2X3",Winnipeg,MB,CANADA,R2J2X3,204-256-2013 ,true,true,-97.09589,49.855122,2019-03-18 14:14:42 UTC,2019-03-28 12:37:08 UTC,ChIJX4U3o_x26lIRjhrwfvT-Tc8,https://www.niakwacountryclub.ca/,"620 Niakwa Rd, Winnipeg, MB R2J 2X3, Canada",Niakwa Country Club,contact@niakwacountryclub.ca,false
173,Royal Regina Golf Shop,5401 11th Ave W.,"Regina, SK S4P3A1",Regina,SK,CANADA,S4P3A1,306-757-3558 ,true,true,-104.6535,50.45055,2019-03-18 14:14:42 UTC,2019-03-28 12:37:10 UTC,ChIJh3sSgtkdHFMRdQjajfJ1Z9o,http://www.royalregina.com/,"5401 11th Avenue West, Regina, SK S4P 3A1, Canada",Royal Regina Golf Club,info@royalregina.com,false
174,Elmwood Golf & Country Club,2015 Hillcrest Dr,"Swift Current, SK S9H3V8",Swift Current,SK,CANADA,S9H3V8,306-773-2722,true,true,-107.772626,50.295178,2019-03-18 14:14:42 UTC,2019-03-28 12:37:13 UTC,ChIJOwjU0jveEFMRkya6MbRJWHo,http://elmwoodgc.com/,"PO BOX 373, 2015 Hillcrest Dr, Swift Current, SK S9H 3V8, Canada",Elmwood Golf Club,not_found,false
175,Medicine Hat Golf & Country Club,947 Pigeon St N.e.,"Medicine Hat, AB T1C 1R2",Medicine Hat,AB,CANADA,T1C 1R2,403-527-8086,true,true,-110.667118,50.049974,2019-03-18 14:14:42 UTC,2019-03-28 12:37:18 UTC,ChIJ7-M0QT8sE1MR7x9O6c7Vaiw,http://www.medicinehatgolf.com/,"Pigeon St NE, Medicine Hat, AB T1C 1R2, Canada",Medicine Hat Golf and Country Club,not_found,false
176,London Hunt & Country Club,1431 Oxford St West,"London, ON N6H1W1",London,ON,CANADA,N6H1W1,519-471-2860 ,true,true,-81.33728,42.970806,2019-03-18 14:14:42 UTC,2019-03-28 12:37:20 UTC,ChIJVVVVVQDuLogRMQo0gcdW_qY,http://www.londonhuntclub.com/,"1431 Oxford St W, London, ON N6H 1W1, Canada",London Hunt & Country Club,info@londonhuntclub.com,false
177,Brantford Golf & Country Club,60 Ava Rd,"Brantford, ON N3T5R7",Brantford,ON,CANADA,N3T5R7,519-752-3731 ,true,true,-80.29415,43.15997,2019-03-18 14:14:42 UTC,2019-03-28 12:37:24 UTC,ChIJaUm5wjhvLIgRY3pMu0KCAp0,http://brantfordgolfandcountryclub.com/,"60 Ava Rd, Brantford, ON N3T 5R7, Canada",Brantford Golf & Country Club,not_found,false
178,Cutten Fields Golf,190 College Ave E,"Guelph, ON N1H6L3",Guelph,ON,CANADA,N1H6L3,519-822-0402 ,true,true,-80.274364,43.543151,2019-03-18 14:14:42 UTC,2019-03-28 12:37:26 UTC,ChIJkSJQ-SCbK4gR4bIE1gg1msU,http://www.cuttenfields.com/,"190 College Ave E, Guelph, ON N1H 6L3, Canada",Cutten Fields,contact@cuttenfields.com,false
179,Hamilton Golf & Country Club,232 Golf Links Road,"Ancaster, ON L9G2N5",Ancaster,ON,CANADA,L9G2N5,905-648-2294 ,true,true,-79.976868,43.218939,2019-03-18 14:14:42 UTC,2019-03-28 12:37:31 UTC,ChIJhS1nraKFLIgRSEIf8qTS7N0,http://www.hgcc.ca/,"232 Golf Links Rd, Ancaster, ON L9G 2N5, Canada",Hamilton Golf and Country Club,admin@hgcc.ca,false
180,Dundas Valley Golf & Country Club,10 Woodleys Ln,"Dundas, ON L9H6Y6",Dundas,ON,CANADA,L9H6Y6,905-628-6738,true,true,-79.979412,43.270495,2019-03-18 14:14:42 UTC,2019-03-28 12:37:34 UTC,ChIJNXzziHGELIgRJDkf1zIA3ks,http://www.dundasvalleygolf.com/,"10 Woodleys Ln, Dundas, ON L9H 6Y6, Canada",Dundas Valley Golf & Curling Club Ltd,admin@dundasvalleygolf.com,false
182,Mississaugua Golf & Country Club,1725 Mississauga Rd,"Mississauga, ON L5H 2K4",Mississauga,ON,CANADA,L5H 2K4,905-278-4857 ,true,true,-79.62236,43.55141,2019-03-18 14:14:42 UTC,2019-03-28 12:37:37 UTC,ChIJZ8oVY59GK4gR-cr-2CmR-6Y,http://www.mississauguagolf.com/,"1725 Mississauga Rd, Mississauga, ON L5H 2K4, Canada",The Mississaugua Golf and Country Club,contact@mississauguagolf.com,false
183,Modern Golf Ltd,2785 Skymark Ave Unit 17,"Mississauga, ON L4W4Y3",Mississauga,ON,CANADA,L4W4Y3,905-629-1003 ,true,true,-79.593041,43.663579,2019-03-18 14:14:42 UTC,2019-03-28 12:37:40 UTC,ChIJB2lbdbI5K4gR12fw9PixSas,http://www.moderngolf.ca/,"2785 Skymark Ave #17, Mississauga, ON L4W 5A7, Canada",Modern Golf,info@moderngolf.ca,false
184,The National Golf Club,134 Clubhouse Rd,"Woodbridge, ON L4L2W2",Woodbridge,ON,CANADA,L4L2W2,416-798-4901 ,true,true,-79.57663,43.81005,2019-03-18 14:14:42 UTC,2019-03-28 12:37:42 UTC,ChIJpdH7zXclK4gRobL7ZpV1IVQ,http://www.nationalgolf.ca/,"134 Clubhouse Rd, Woodbridge, ON L4L 2W2, Canada",The National Golf Club of Canada,contact@nationalgolf.ca,false
185,Sirocco Golf Club Ltd,Site 13 Comp 21 R.r.9,"Calgary, AB T2J 5G5",Calgary,AB,CANADA,T2J 5G5,403-201-5505,true,true,-113.975472,50.94456,2019-03-18 14:14:42 UTC,2019-03-28 12:37:48 UTC,ChIJIeQUBjOecVMRWdtPQkgydSE,http://www.sirocco.ca/,"210178 64th Street West, Foothills No. 31, AB T1S 5G5, Canada",Sirocco Golf Club,info@sirocco.ca,false
186,Bearspaw Country Club,61 Hamilton Drive,"Calgary, AB T3R 1A2",Calgary,AB,CANADA,T3R 1A2,403-239-7444 ,true,true,-114.2653,51.15677,2019-03-18 14:14:42 UTC,2019-03-28 12:37:55 UTC,ChIJVeLUoutpcVMR4ZsjAbLir5g,http://www.golfbearspaw.com/,"61 Hamilton Dr, Calgary, AB T3R 1A2, Canada",Bearspaw Country Club,not_found,false
187,Copper Point G.c.,651 Hwy 93/95,"Invermere, BC V0A1K3",Invermere,BC,CANADA,V0A1K3,250-341-3392,true,true,-115.9943,50.50683,2019-03-18 14:14:42 UTC,2019-03-28 12:37:58 UTC,ChIJV3n1SapmelMRUQB4LxE5GSw,http://copperpointgolf.com/,"#651, Hwy 93/95, RR#3, Invermere, BC V0A 1K3, Canada",Copper Point Golf Club,not_found,false
188,Ottawa Hunt Golf & Country Club,1 Huntclub Rd,"Ottawa, ON K1V1B9",Ottawa,ON,CANADA,K1V1B9,613-736-1134 ,true,true,-75.66805,45.32278,2019-03-18 14:14:42 UTC,2019-03-28 12:38:00 UTC,ChIJExyRqX8IzkwRHNuAaqNz_HM,http://www.ottawahuntclub.org/,"1 Hunt Club Rd, Ottawa, ON K1V 1B9, Canada",Ottawa Hunt & Golf Club,contact@ottawahuntclub.org,false
189,Fort Mcmurray GC,"#1 Athabasca Ridge, Real Martin Dr","Fort Mcmurray, AB T9H 3G6",Fort Mcmurray,AB,CANADA,T9H 3G6,780-743-5577,true,true,-111.469628,56.726312,2019-03-18 14:14:42 UTC,2019-03-28 12:38:04 UTC,ChIJp24aemIIsFMR8VkZ_FIjNfc,http://www.fortmcmurraygolfclub.com/,"1 Real Martin Dr, Fort McMurray, AB T9H 4R8, Canada",Fort McMurray Golf Club,not_found,false
190,Peak Golf,1619 Lonsdale Avenue,"North Vancouver, BC V7M2J5",North Vancouver,BC,CANADA,V7M2J5,604-980-8899,true,true,-123.107614,49.323864,2019-03-18 14:14:42 UTC,2019-03-28 12:38:08 UTC,ChIJSb8ZMrRzhlQRokBsOE6ZMa0,http://peakgolf.ca/,"2077 W 4th Ave, Vancouver, BC V6J 1N3, Canada",Peak Golf,not_found,false
191,Nevada Bob's Golf Grande Prairie,11349-104 Ave,"Grande Prairie, AB T8V 0N7",Grande Prairie,AB,CANADA,T8V 0N7,780-513-2554 ,true,true,-118.801108,55.174377,2019-03-18 14:14:42 UTC,2019-03-28 12:38:27 UTC,ChIJa25zcU6RkFMRCkHSBV6Nk54,http://www.nevadabobsgp.com/,"11349 104 Ave, Grande Prairie, AB T8V 0N7, Canada",Nevada Bob’s Golf - Grande Prairie,not_found,false
193,Club De Golf Levis,6100 Boul De La Rive-sud,"Levis, QC G6V8Z7",Levis,QC,CANADA,G6V8Z7,418-837-3618 EXP 232,true,true,-71.169624,46.800788,2019-03-18 14:14:42 UTC,2019-03-28 12:38:30 UTC,ChIJKdRmPQiVuEwRjMjSGgZ087A,https://www.golflevis.com/,"6100 Boulevard Guillaume-Couture, Lévis, QC G6V 8Z7, Canada",Club De Golf Levis,info@golflevis.com,false
194,Sarnia Golf and Country Club,500 Errol Rd W.,"Sarnia, ON N7V1X7",Sarnia,ON,CANADA,N7V1X7,519-336-2201,true,true,-82.39536,42.99146,2019-03-18 14:14:42 UTC,2019-03-28 12:38:32 UTC,ChIJQ7_JBKycJYgR5HAJsNF9sv0,http://www.sgcc.on.ca/,"500 Errol Rd W, Sarnia, ON N7V 1X7, Canada",Sarnia Golf & Curling Club Ltd,contact@sgcc.on.ca,false
195,Golf Shop at Breezy Bend Golf Club,7620 Roblin Blvd,"Headingley, MB R4H1A7",Headingley,MB,CANADA,R4H1A7,204-895-7206,true,true,-97.37531,49.86261,2019-03-18 14:14:42 UTC,2019-03-28 12:38:51 UTC,ChIJxzQUJTgJ6lIRqK0xY60w78M,http://www.breezybend.ca/,"7620 Roblin Blvd, Headingley, MB R4H 1A7, Canada",Breezy Bend Country Club,not_found,false
196,Golf Brandon/ Ds Pro Shop,1127 Braecrest Dr,"Brandon, MB R7C1B1",Brandon,MB,CANADA,R7C1B1,204-728-6967 ,true,true,-99.95281,49.87392,2019-03-18 14:14:42 UTC,2019-03-28 12:38:52 UTC,ChIJszPslkCtjocR5Ai3fG86IHs,http://www.brandongc.com/,"Aspen Park Rd, Brandon, SD 57005, USA",Brandon Golf Course,info@brandongc.com,false
197,Fore Golfers Only Ltd,"43765 Talbot Line,","St Thomas, ON N5P3S7",St Thomas,ON,CANADA,N5P3S7,519-631-8617,true,true,-81.114091,42.786072,2019-03-18 14:14:42 UTC,2019-03-28 12:39:02 UTC,ChIJU1BFSileLogRYwmr8pBjyZk,http://www.foregolfersonly.on.ca/,"43765 Talbot Line, St Thomas, ON N5P 3S7, Canada",Fore Golfers Only,not_found,false
198,Holiday Park Golf,1630 Ave U South,"Saskatoon, SK S7M3C9",Saskatoon,SK,CANADA,S7M3C9,306-975-3325 ,true,true,-106.70464,52.128106,2019-03-18 14:14:42 UTC,2019-03-28 12:39:04 UTC,ChIJT1qfDbrwBFMRVWwp0o195T0,http://www.saskatoon.ca/golf,"1630 Avenue U S, Saskatoon, SK S7M 1J3, Canada",Holiday Park Golf Course,contact@saskatoon.ca,false
199,Evergreen Golf Centre,5225 24 Ave South,"Lethbridge, AB T1K 7C2",Lethbridge,AB,CANADA,T1K 7C2,403-329-4500 ,true,true,-112.773684,49.668888,2019-03-18 14:14:42 UTC,2019-03-28 12:39:10 UTC,ChIJ7X454HyGblMRlAqjAqvGZyQ,https://evergreen.golf/,"5225 24 Ave S, Lethbridge, AB T1K 7C2, Canada",Evergreen Golf Centre,not_found,false
200,Credit Valley Golf & Country Club,2500 Old Carriage Road,"Mississauga, ON L5C 1Y7",Mississauga,ON,CANADA,L5C 1Y7,905-275-2505,true,true,-79.64445,43.55127,2019-03-18 14:14:42 UTC,2019-03-28 12:39:22 UTC,ChIJCQn15alGK4gRWvse3luiRrg,http://www.creditvalleygolf.com/,"2500 Old Carriage Rd, Mississauga, ON L5C 1Y7, Canada",Credit Valley Golf and Country Club,not_found,false
201,St Andrew's East Golf,14022 Mccowan Road,"Stouffville, ON L4A4E2",Stouffville,ON,CANADA,L4A4E2,905-640-4444 ,true,true,-79.31612,44.00151,2019-03-18 14:14:42 UTC,2019-03-28 12:39:27 UTC,ChIJkZMGrDgs1YkR73KnRpMQ-4E,https://www.standrewseastgolf.com/,"14022 McCowan Rd, Whitchurch-Stouffville, ON L4A 7X5, Canada",St. Andrew's East Golf & Country Club,admin@standrewseastgolf.com,false
202,Willow Park Golf & Country Club,639 Willow Park Dr Se,"Calgary, AB T2J 0L6",Calgary,AB,CANADA,T2J 0L6,403-271-7676 ,true,true,-114.049,50.95818,2019-03-18 14:14:42 UTC,2019-03-28 12:39:29 UTC,ChIJmeWQ0CpxcVMR_S2zkvkWbbY,http://www.willowparkgolf.com/index.cfm?,"639 Willow Park Dr SE, Calgary, AB T2J 0L6, Canada",Willow Park Golf & Country Club,info@willowparkgolf.com,false
203,Silvertip Golf Resort,2000 Silvertip Trail,"Canmore, AB T1W 3J4",Canmore,AB,CANADA,T1W 3J4,403-678-1600,true,true,-115.342031,51.104601,2019-03-18 14:14:42 UTC,2019-03-28 12:39:32 UTC,ChIJRbfHuJnFcFMRHo1burdyy9w,http://www.silvertipresort.com/,"2000 Silvertip Trail, Canmore, AB T1W 3J4, Canada",Silvertip Golf Course,contact@silvertipresort.com,false
204,Granite Pointe Golf Club,1123 West Richards Street,"Nelson, BC V1L5P7",Nelson,BC,CANADA,V1L5P7,250-352-5913,true,true,-117.3072,49.47997,2019-03-18 14:14:42 UTC,2019-03-28 12:39:37 UTC,ChIJ99l_wCa0fFMR4EoPKV66iZU,http://www.granitepointe.ca/,"1123 Richards St W, Nelson, BC V1L 6E3, Canada",Granite Pointe Golf Club and RV Park,admin@granitepointe.ca,false
205,Ponoka Community Golf Club,3519-46st,"Ponoka, AB T4J 1R5",Ponoka,AB,CANADA,T4J 1R5,403-783-4626 ,true,true,-113.577049,52.67757,2019-03-18 14:14:42 UTC,2019-03-28 12:39:57 UTC,ChIJSUPlxI4WdVMRqqcCuhwm-Ps,http://www.ponokagolf.com/,"3519 46 St, Ponoka, AB T4J 1R5, Canada",Ponoka Community Golf Club,not_found,false
206,Christina Lake GC,339 2nd Ave,"Christina Lake, BC V0H1E0",Christina Lake,BC,CANADA,V0H1E0,250-447-9313,true,true,-118.233345,49.263881,2019-03-18 14:14:42 UTC,2019-03-28 12:39:59 UTC,ChIJG92etzq3YlMRWQpph3f_UbM,http://www.christinalakegolfclub.com/,"Kootenay Boundary C, BC V0H 1E0, Canada",Christina Lake Golf Club,contact@christinalakegolfclub.com,false
207,Golf Laval-sur-le-lac,150 Les Peupliers,"Laval, QC H7R1G4",Laval,QC,CANADA,H7R1G4,450-627-2643 X118,true,true,-73.874927,45.525425,2019-03-18 14:14:42 UTC,2019-03-28 12:40:02 UTC,ChIJ9T6QpjolyUwRm94bGiYM1Cc,http://clsll.ca/,"150 Rue les Peupliers, Laval, QC H7R 1G2, Canada",Le Club Laval-sur-le-Lac,not_found,false
209,Uplands Golf Club,3300 Cadboro Bay Rd,"Victoria, BC V8R5K5",Victoria,BC,CANADA,V8R5K5,250-592-1818 ,true,true,-123.309159,48.44988,2019-03-18 14:14:42 UTC,2019-03-28 12:40:21 UTC,ChIJvcP5JQF0j1QRr_9KoF19zBY,http://www.uplandsgolfclub.com/,"3300 Cadboro Bay Rd, Victoria, BC V8R 5K5, Canada",Uplands Golf Club,not_found,false
210,Liquidagolf Inc,1497 Rue St-antoine,"Saint-hyacinthe, QC J2S3L1",Saint-hyacinthe,QC,CANADA,J2S3L1,450-252-1954,true,true,-72.94449,45.62414,2019-03-18 14:14:42 UTC,2019-03-28 12:40:26 UTC,ChIJo49ivMeXuEwR83l5TgwNB7o,http://liquidagolfquebec.com/,"325 Rue du Marais local 150, Québec, QC G1M 3R3, Canada",Liquidagolf,not_found,false
211,Par-tee Golf,4935 No.3 Road,"Richmond, BC V6X2C3",Richmond,BC,CANADA,V6X2C3,778-323-7476,true,true,-123.137,49.17848,2019-03-18 14:14:42 UTC,2019-03-28 12:40:29 UTC,ChIJdU0LYy51hlQRTzVbsLXVyBU,http://www.parteegolf.ca/,"4935 No 3 Rd, Richmond, BC V6X 2C3, Canada",Par-Tee Golf,contact@parteegolf.ca,false
213,Point Grey Golf & Country Club,3350 Marine Dr Sw,"Vancouver, BC V6N3Y9",Vancouver,BC,CANADA,V6N3Y9,604-261-3108 ,true,true,-123.1803,49.22981,2019-03-18 14:14:42 UTC,2019-03-28 12:40:31 UTC,ChIJM3lYOFpzhlQRZTnod87rVIE,http://www.pointgreygolf.com/,"3350 SW Marine Dr, Vancouver, BC V6N 3Y9, Canada",Point Grey Golf & Country Club,contact@pointgreygolf.com,false
214,Liquidagolf Inc,4100 Rue Sherbrooke,"Magog, QC J1X5R2",Magog,QC,CANADA,J1X5R2,819-868-4040,true,true,-72.10341,45.29593,2019-03-18 14:14:42 UTC,2019-03-28 12:40:35 UTC,ChIJr1aK4NZJtkwRkPaIz68HTHs,http://www.liquidagolfsherbrooke.com/,"4100 Rue Sherbrooke, Magog, QC J1X 3W5, Canada",Liquidagolf Sherbrooke,info@liquidagolfsherbrooke.com,false
215,Advantage Golf and Learning Center,576 Upward Rd Unit 6,"Flat Rock, NC 28731-8596",Flat Rock,NC,UNITED STATES,28731-8596,828-692-9615 ,true,true,-82.413675,35.297696,2019-03-18 14:14:42 UTC,2019-03-28 12:40:41 UTC,ChIJmZ3J4ujCWYgRVgYoPVPr4WE,http://advantagegolf.biz/,"576 Upward Rd # 6, Flat Rock, NC 28731, USA",Advantage Golf & Learning Center,not_found,false
216,Crestwood Golf Club,6315 Rt 291,"Marcy, NY 13403",Marcy,NY,UNITED STATES,13403,315-736-0478,true,true,-75.291646,43.166396,2019-03-18 14:14:42 UTC,2019-03-28 12:40:45 UTC,ChIJSRvsv58_2YkRywCU4XtTMzI,http://www.crestwoodgolf.com/,"6315 NY-291, Marcy, NY 13403, USA",Crestwood Golf Club Inc,contact@crestwoodgolf.com,false
217,Fore Some Sports,8104 Cortez Rd W,"Bradenton, FL 34210-2421",Bradenton,FL,UNITED STATES,34210-2421,941-794-2345 ,true,true,-82.642986,27.462322,2019-03-18 14:14:42 UTC,2019-03-28 12:40:51 UTC,ChIJmbBltVoRw4gRe__yFnUlr40,http://foresomesports.com/,"8104 Cortez Rd W, Bradenton, FL 34210, USA",Fore Some Sports,not_found,false
218,Solid Impact Sports,901 Harrison St,"Wood River, IL 62095-1863",Wood River,IL,UNITED STATES,62095-1863,618-259-2365,true,true,-90.081519,38.865738,2019-03-18 14:14:42 UTC,2019-03-28 12:40:59 UTC,ChIJiZUHTtJb34cRmsHPmL-im9k,http://www.solidimpactgolfcenter.com/,"901 Harrison St, Wood River, IL 62095, USA",Solid Impact Golf Center,store@solidimpactgolfcenter.com,false
219,Pelican Golf,26W151 Butterfield Road,"Wheaton, IL 60189",Wheaton,IL,UNITED STATES,60189,708-924-9889 ,true,true,-88.133963,41.828993,2019-03-18 14:14:42 UTC,2019-03-28 12:41:05 UTC,ChIJ2X4zHtRVDogRp7CzEt2aD6w,https://pelicangolfcenter.com/,"26W151 Butterfield Rd, Wheaton, IL 60189, USA",Pelican Golf Club Fittings and Golf Repair,not_found,false
220,The Golf Ranch,610 N Austin Ave Ste 109,"Georgetown, TX 78626-4210",Georgetown,TX,UNITED STATES,78626-4210,512-863-4573 ,true,true,-97.701477,30.63285,2019-03-18 14:14:42 UTC,2019-03-28 12:41:19 UTC,ChIJMS4CvXnWRIYReclOaAFFLRg,http://www.golfranchshop.com/,"610 N Austin Ave #120, Georgetown, TX 78626, USA",The Golf Ranch,not_found,false
221,Shelby Oaks Golf Club,9900 Sidney Freyburg Rd,"Sidney, OH 45365-7257",Sidney,OH,UNITED STATES,45365-7257,937-492-2883,true,true,-84.13197,40.344028,2019-03-18 14:14:42 UTC,2019-03-28 12:41:21 UTC,ChIJTw8KtBIFP4gRAKVWowv6KPQ,http://www.shelbyoaks.com/,"9900 Sidney-Freyburg Rd, Sidney, OH 45365, USA",Shelby Oaks Golf Club,contact@shelbyoaks.com,false
222,Marietta Country Club Golf Shop,1400 Marietta Country Club Dr Nw,"Kennesaw, GA 30152-4744",Kennesaw,GA,UNITED STATES,30152-4744,770-426-7084,true,true,-84.624898,33.986001,2019-03-18 14:14:42 UTC,2019-03-28 12:41:22 UTC,ChIJX2I1Lzo-9YgRPCLrR2Qv0ZI,http://www.mariettacountryclub.org/,"1400 Marietta Country Club Dr NW, Kennesaw, GA 30152, USA",Marietta Country Club,contact@mariettacountryclub.org,false
223,Ray Rays Golf Shop,135 Crown Dr Ste B,"Danville, VA 24540-5945",Danville,VA,UNITED STATES,24540-5945,434-792-1116,true,true,-79.426931,36.594786,2019-03-18 14:14:42 UTC,2019-03-28 12:41:28 UTC,ChIJPVjj7HWzUogRJ3zMKaCzVs8,https://www.rayraysgolfshop.com/,"135 Crown Dr, Danville, VA 24540, USA",Ray's Golf,not_found,false
224,Cathedral Canyon Golf & Tennis Club,68311 Paseo Real,"Cathedral City, CA 92234-6767",Cathedral City,CA,UNITED STATES,92234-6767,760-218-3811,true,true,-116.469295,33.794659,2019-03-18 14:14:42 UTC,2019-03-28 12:41:45 UTC,ChIJPwUnAtUc24AR_xqppXao6fI,https://www.jcgolf.com/san-diego-golf-courses/cathedral-canyon/,"68311 Paseo Real, Cathedral City, CA 92234, USA",Cathedral Canyon Golf Club,info@jcgolf.com,false
225,Hangman Valley Golf Club,2210 E Hangman Valley Rd,"Spokane, WA 99223-9572",Spokane,WA,UNITED STATES,99223-9572,509-448-1212,true,true,-117.377917,47.54049,2019-03-18 14:14:42 UTC,2019-03-28 12:41:54 UTC,ChIJi1doqjc7nlQR_2sO1a_5VSk,https://www.spokanecounty.org/1141/Hangman-Valley,"2210 E Hangman Valley Rd, Spokane, WA 99223, USA",Hangman Valley Golf Course,not_found,false
226,Bucknell Golf Club Pro Shop,366 Smoketown Rd,"Lewisburg, PA 17837-8700",Lewisburg,PA,UNITED STATES,17837-8700,570-523-8193 ,true,true,-76.894302,40.94934,2019-03-18 14:14:42 UTC,2019-03-28 12:41:57 UTC,ChIJu5uT05QTz4kRebFdlDr0mrM,https://www.bucknell.edu/GolfClub,"366 Smoketown Rd, Lewisburg, PA 17837, USA",Bucknell Golf Club,admin@bucknell.edu,false
227,The Country Club of Orlando,1601 Country Club Dr,"Orlando, FL 32804-6603",Orlando,FL,UNITED STATES,32804-6603,407-425-2319,true,true,-81.403547,28.560767,2019-03-18 14:14:42 UTC,2019-03-28 12:42:06 UTC,ChIJD8C6-EB654gRwFVKlB3Mj1k,http://www.countrycluboforlando.com/,"1601 Country Club Dr, Orlando, FL 32804, USA",The Country Club of Orlando,not_found,false
228,Geneva Golf Club,4192 Geneva Golf Club Dr Ne,"Alexandria, MN 56308",Alexandria,MN,UNITED STATES,56308,320-219-7677,true,true,-95.314068,45.898843,2019-03-18 14:14:42 UTC,2019-03-28 12:42:12 UTC,ChIJzZ3PSN8IylIRFJ1uYMbvLoo,http://genevagolfclub.com/,"4181 Geneva Golf Club Dr, Alexandria, MN 56308, USA",Geneva Golf Club,not_found,false
229,Lakeridge Links Golf Club,1355 Brawley Rd,"Whitby, ON L1M1B5",Whitby,ON,CANADA,L1M1B5,905-428-6321 EXT 221,true,true,-78.961702,43.958603,2019-03-18 14:14:42 UTC,2019-03-28 12:42:14 UTC,ChIJeb5rvokY1YkRwOd1ARL8nhY,http://www.lakeridgelinks.com/,"1355 Brawley Rd, Whitby, ON L1M 1B5, Canada",Lakeridge Links Golf Club,contact@lakeridgelinks.com,false
230,Niagara Golf,10 Dunlop Dr. Unit F,"St Catharines, ON L2R1A2",St Catharines,ON,CANADA,L2R1A2,905-984-6306 ,true,true,-79.243573,43.175269,2019-03-18 14:14:42 UTC,2019-03-28 12:42:18 UTC,ChIJKZiyku5a04kRdLim9Zkvfcg,http://www.kaneffgolf.com/,"1 Niagara-on-the-Green Blvd, Niagara-on-the-Lake, ON L0S 1J0, Canada",Royal Niagara Golf Club,info@kaneffgolf.com,false
231,Rosedale Golf Club,1901 Mount Pleasant Rd,"Toronto, ON M4N2W3",Toronto,ON,CANADA,M4N2W3,416-486-8830 ,true,true,-79.39989,43.73607,2019-03-18 14:14:42 UTC,2019-03-28 12:42:22 UTC,ChIJCfQrGbgyK4gRueXDkUTXnIA,http://www.rosedalegolf.org/,"1901 Mt Pleasant Rd, Toronto, ON M4N 2W3, Canada",Rosedale Golf Club,info@rosedalegolf.org,false
232,Strickly Golf Ltd,3911 32nd St,"Vernon, BC V1T5P2",Vernon,BC,CANADA,V1T5P2,250-542-4653 ,true,true,-119.273706,50.270438,2019-03-18 14:14:42 UTC,2019-03-28 12:42:28 UTC,ChIJRRk-revYfVMR5rlfhG2eSDw,http://vernongolfshop.com/,"3911 32 St, Vernon, BC V1T 5P2, Canada",Strictly Golf Ltd,not_found,false
234,Urban Golf Performance,2238 S Sepulveda Blvd,"Los Angeles, CA 90064-1812",Los Angeles,CA,UNITED STATES,90064-1812,310-993-6323 ,true,true,-118.436947,34.039126,2019-03-18 14:14:42 UTC,2019-03-28 12:42:30 UTC,ChIJS5qBM6C7woARX_JmM5A25gY,http://www.ugp.la/,"2234 S Sepulveda Blvd, Los Angeles, CA 90064, USA",Urban Golf Performance,info@ugp.la,false
235,Creekmoor Pro Shop,1112 E 163rd St,"Raymore, MO 64083-8392",Raymore,MO,UNITED STATES,64083-8392,816-331-2621 ,true,true,-94.472744,38.82762,2019-03-18 14:14:42 UTC,2019-03-28 12:42:37 UTC,ChIJhZVC_C3fwIcR7j7JUFY_y8Y,http://www.creekmoor.com/,"1112 East 163rd Street,, Raymore, MO 64083, USA",Creekmoor Golf Course,info@creekmoor.com,false
236,Ken Schall Golf Performance Studio,2700 University Ave Ste 330,"West Des Moines, IA 50266-1470",West Des Moines,IA,UNITED STATES,50266-1470,515-249-5577,true,true,-93.74131,41.59974,2019-03-18 14:14:42 UTC,2019-03-28 12:42:43 UTC,ChIJ6aAGLiCe7ocREZGh__IY5HE,http://kenschallgolf.com/,"2700 University Ave #330, West Des Moines, IA 50266, USA",Ken Schall Golf,not_found,false
237,Golf Lab,925 S West Temple,"Salt Lake City, UT 84101-2928",Salt Lake City,UT,UNITED STATES,84101-2928,801-746-1291,true,true,-111.893571,40.748843,2019-03-18 14:14:42 UTC,2019-03-28 12:42:45 UTC,ChIJHzpQPyP1UocRWYfefrLtNOo,http://www.golflab.net/,"925 S W Temple, Salt Lake City, UT 84101, USA",Golf Lab,contact@golflab.net,false
238,Valley Hi Country Club,9595 Franklin Blvd,"Elk Grove, CA 95758-9532",Elk Grove,CA,UNITED STATES,95758-9532,916-423-2170,true,true,-121.439956,38.412139,2019-03-18 14:14:42 UTC,2019-03-28 12:42:58 UTC,ChIJ98v9boHImoARDSizyTYmmLs,http://www.valleyhicc.com/,"9595 Franklin Blvd, Elk Grove, CA 95758, USA",Valley Hi Country Club,admin@valleyhicc.com,false
239,Windham Country Club,1 Country Club Rd,"Windham, NH 03087-1589",Windham,NH,UNITED STATES,03087-1589,603-434-2093,true,true,-71.312437,42.819186,2019-03-18 14:14:42 UTC,2019-03-28 12:43:16 UTC,ChIJzzH30_Ks44kRFZ4jZYT9jBg,http://www.windhamcc.com/,"1 Country Club Rd, Windham, NH 03087, USA",Windham Country Club,not_found,false
241,2nd Swing,Ridgedale Square North 13031 Ridgedale Dr,"Minnetonka, MN 55305",Minnetonka,MN,United States,55305,952-546-1906,true,true,-93.444201,44.96867,2019-03-18 14:14:42 UTC,2019-03-28 12:43:18 UTC,ChIJ_V4tZepKs1IREHkwg0EDK40,https://www.2ndswing.com/,"13031 Ridgedale Dr, Minnetonka, MN 55305, USA",2nd Swing Golf - Minnetonka,admin@2ndswing.com,false
243,True Spec Golf Scottsdale,7327 E Tierra Buena Ln,"Scottsdale, AZ 85260-1609",Scottsdale,AZ,UNITED STATES,85260-1609,844-729-8809,true,true,-111.92147,33.628902,2019-03-18 14:14:42 UTC,2019-03-28 12:43:22 UTC,ChIJOYuGnDt0K4cR2oDLSU8_Xks,http://truespecgolf.com/,"7327 E Tierra Buena Ln, Scottsdale, AZ 85260, USA",True Spec Golf,not_found,false
244,Nynashamns Golfklubb,Körunda 40,"Ösmo,  14891",Ösmo,"",SWEDEN,14891,00-467-3533 8211,false,true,-76.94126,42.3683,2019-03-18 14:14:42 UTC,2019-03-28 12:43:28 UTC,ChIJcS0VI9BnX0YRdVDp2WtyW8I,http://www.nynashamnsgk.se/,"Körunda 40, 148 91 Ösmo, Sweden",Nynäshamns Golf AB,info@nynashamnsgk.se,false
245,Golf Galaxy - Chesterfield,28 Thf Blvd,"Chesterfield, MO 63005-1150",Chesterfield,MO,UNITED STATES,63005-1150,636-536-9920,true,true,-90.583236,38.666575,2019-03-18 14:14:42 UTC,2019-03-28 12:43:29 UTC,ChIJSd8Nrr4q34cRpBWm7Iu9tLQ,https://stores.golfgalaxy.com/mo/chesterfield/3112/?seo=localpack,"28 THF Blvd, Chesterfield, MO 63005, USA",Golf Galaxy,contact@golfgalaxy.com,false
246,Omalley's On The Green,1039 Valley Ave Nw,"Puyallup, WA 98371-2515",Puyallup,WA,UNITED STATES,98371-2515,907-522-3363 ,true,true,-122.307637,47.215304,2019-03-18 14:14:42 UTC,2019-03-28 12:43:33 UTC,ChIJ7RRHo_eZyFYRxqSTgK9PFHs,http://anchoragegolfcourse.com/,"4266, 3651 O'Malley Rd, Anchorage, AK 99507, USA",O'Malley's On the Green,not_found,false
247,Miramichi Golf & Country Club,930 Water St,"Miramichi, NB E1N4C3",Miramichi,NB,CANADA,E1N4C3,506-622-0696,true,true,-65.51593,47.0128,2019-03-18 14:14:42 UTC,2019-03-28 12:43:38 UTC,ChIJJQcYT8WKoUwRPCOIseaDTLc,http://miramichigolfclub.ca/,"930 Water St, Miramichi, NB E1N 4C3, Canada",Miramichi Golf & Country Club,not_found,false
249,PGA TOUR Superstore Kennesaw,2911 George Busbee Pkwy Nw Ste 100,"Kennesaw, GA 30144-6909",Kennesaw,GA,UNITED STATES,30144-6909,770-422-4949 ,true,true,-84.570119,34.024478,2019-03-18 14:14:42 UTC,2019-03-28 12:43:39 UTC,ChIJR5VXKy8V9YgRg8VBrot44Rc,https://www.pgatoursuperstore.com/stores/kennesaw-georgia/0102.html,"2911 George Busbee Pkwy NW, Kennesaw, GA 30144, USA",PGA TOUR Superstore,contact@pgatoursuperstore.com,false
250,Knollwood Fairways,1470 Midland Rd,"Southern Pines, NC 28387-2135",Southern Pines,NC,UNITED STATES,28387-2135,910-692-3572 ,true,true,-79.406988,35.197336,2019-03-18 14:14:42 UTC,2019-03-28 12:44:00 UTC,ChIJAf6MQWazVIgRM_pVfDYi-Qs,http://www.knollwood-midland.com/,"1470 Midland Rd, Southern Pines, NC 28387, USA",Knollwood Fairways & Driving,not_found,false
251,Edwin Watts Golf - Overland Park,6824 W 119th St,"Overland Park, KS 66209-2014",Overland Park,KS,UNITED STATES,66209-2014,913-491-4653 ,true,true,-94.66436,38.913662,2019-03-18 14:14:42 UTC,2019-03-28 12:44:04 UTC,ChIJS53iIhXqwIcRMh-pdEkE37s,https://www.worldwidegolfshops.com/locations/edwin-watts-golf-overland-park-6824-w-119th-street.html,"6824 W 119th St, Overland Park, KS 66209, USA",Edwin Watts Golf,not_found,false
252,Golf Headquarters,6028 Bell St,"Amarillo, TX 79109-6619",Amarillo,TX,UNITED STATES,79109-6619,806-358-1385 ,true,true,-101.902552,35.145497,2019-03-18 14:14:42 UTC,2019-03-28 12:44:21 UTC,ChIJjSn6uKVaAYcRuZgy7pSWrsw,http://www.golfheadquartersofamarillo.com/,"6028 Bell St, Amarillo, TX 79109, USA",Golf Headquarters of Amarillo,not_found,false
254,PGA TOUR Superstore Preston,8700 Preston Rd Ste 100,"Plano, TX 75024-3324",Plano,TX,UNITED STATES,75024-3324,214-778-3850,true,true,-96.801399,33.09618,2019-03-18 14:14:42 UTC,2019-03-28 12:44:22 UTC,ChIJIWtdgec8TIYR7tYGE6JeMEo,https://www.pgatoursuperstore.com/stores/plano-preston-rd-texas/0402.html,"8700 Preston Rd #100, Plano, TX 75024, USA",PGA TOUR Superstore,contact@pgatoursuperstore.com,false
255,Illini Golf,3711 N Sterling Ave,"Peoria, IL 61615-4228",Peoria,IL,UNITED STATES,61615-4228,309-685-4653,true,true,-89.631913,40.732722,2019-03-18 14:14:43 UTC,2019-03-28 12:44:42 UTC,ChIJRVlTUQxcCogRs-VsNHQrLdI,http://www.illinigolf.net/,"3711 N Sterling Ave, Peoria, IL 61615, USA",Illini Golf Headquarters,not_found,false
256,PGA TOUR Superstore Plano,600 Accent Dr,"Plano, TX 75075-8962",Plano,TX,UNITED STATES,75075-8962,214-427-4060,true,true,-96.709195,33.007649,2019-03-18 14:14:43 UTC,2019-03-28 12:44:42 UTC,ChIJ78OfyN4YTIYRDb5zDSObJnE,https://www.pgatoursuperstore.com/stores/plano-accent-dr-texas/0401.html,"600 Accent Dr, Plano, TX 75075, USA",PGA TOUR Superstore,contact@pgatoursuperstore.com,false
257,Leonard Golf Links,3200 Chapel Creek Blvd,"Fort Worth, TX 76116-1200",Fort Worth,TX,UNITED STATES,76116-1200,817-560-0200,true,true,-97.505893,32.726601,2019-03-18 14:14:43 UTC,2019-03-28 12:44:44 UTC,ChIJbSZo9jYMToYRSkT7GdgbiD4,http://www.leonardgolflinks.com/,"3200 Chapel Creek Blvd, Fort Worth, TX 76116, USA",Leonard Golf Links,info@leonardgolflinks.com,false
258,Edwin Watts Golf - Fort Worth,5805 Camp Bowie Blvd,"Ft Worth, TX 76107-5007",Ft Worth,TX,UNITED STATES,76107-5007,817-731-4441 ,true,true,-97.410096,32.730607,2019-03-18 14:14:43 UTC,2019-03-28 12:44:48 UTC,ChIJ4ypJ9BtzToYRkVMpJBwPOJg,https://www.worldwidegolfshops.com/locations/edwin-watts-golf-fort-worth-5805-camp-bowie-blvd.html,"5805 Camp Bowie Blvd, Fort Worth, TX 76107, USA",Edwin Watts Golf,not_found,false
260,The Golf Center,3001 S Columbia Rd Ste F,"Grand Forks, ND 58201-6064",Grand Forks,ND,UNITED STATES,58201-6064,701-775-0019,true,true,-97.065749,47.89113,2019-03-18 14:14:43 UTC,2019-03-28 12:44:52 UTC,ChIJQa5bL-iAxlIRSb9_UdYDS-o,http://thegolfcenter.net/,"3001 S Columbia Rd, Grand Forks, ND 58201, USA",Golf Center,not_found,false
261,PGA TOUR Superstore Schaumburg,1319 E Golf Rd,"Schaumburg, IL 60173-4803",Schaumburg,IL,UNITED STATES,60173-4803,847-592-5510,true,true,-88.047087,42.050266,2019-03-18 14:14:43 UTC,2019-03-28 12:44:52 UTC,ChIJC4btZpyvD4gRx8sHyjz_NZY,https://www.pgatoursuperstore.com/stores/schaumburg-illinois/0701.html,"1319 E Golf Rd, Schaumburg, IL 60173, USA",PGA TOUR Superstore,contact@pgatoursuperstore.com,false
262,Edwin Watts Golf - Memphis,4625 Poplar Ave,"Memphis, TN 38117-4419",Memphis,TN,UNITED STATES,38117-4419,901-767-1244 ,true,true,-89.908052,35.115921,2019-03-18 14:14:43 UTC,2019-03-28 12:44:56 UTC,ChIJ-X-6Zw2Ef4gR4hDFQoqC1Fg,https://www.worldwidegolfshops.com/locations/edwin-watts-golf-memphis-4625-poplar-ave.html,"4625 Poplar Ave, Memphis, TN 38117, USA",Edwin Watts Golf,not_found,false
263,Ringos Golf Center,7611 E Lincoln Hwy,"Crown Point, IN 46307-8821",Crown Point,IN,UNITED STATES,46307-8821,219-942-8929,true,true,-87.411547,41.4774,2019-03-18 14:14:43 UTC,2019-03-28 12:45:00 UTC,ChIJd4Q9BpXsEYgRdn3JQksmGqY,http://www.ringosgolf.com/,"7611 E Lincoln Hwy, Crown Point, IN 46307, USA",Ringo's Golf Center,shop@ringosgolf.com,false
264,Mitchell Golf,3007 Montana Ave,"Billings, MT 59101-2144",Billings,MT,UNITED STATES,59101-2144,406-245-8691,true,true,-108.507892,45.78006,2019-03-18 14:14:43 UTC,2019-03-28 12:45:17 UTC,ChIJE71hzTZ7SFMRCWW0D2D1e4g,http://www.mitchellgolfmt.com/,"3007 Montana Ave, Billings, MT 59101, USA",Mitchell Golf,not_found,false
265,Bunker Run Golf Inc,251 N State Road 135,"Greenwood, IN 46142-1304",Greenwood,IN,UNITED STATES,46142-1304,317-883-3840,true,true,-86.165002,39.619671,2019-03-18 14:14:43 UTC,2019-03-28 12:45:24 UTC,ChIJOdVDEsFda4gRJ93p-UDMDIE,http://www.orchardgolfcenter.com/,"251 N State Rd 135, Greenwood, IN 46142, USA",Bunker Run Pro Shop,not_found,false
266,Nicks Golf Center,30013 Old Us 20,"Elkhart, IN 46514-8407",Elkhart,IN,UNITED STATES,46514-8407,574-296-2881,true,true,-86.04327,41.68913,2019-03-18 14:14:43 UTC,2019-03-28 12:45:30 UTC,ChIJFbsjhtLEFogRIIMiEAcXknk,http://nicksgolf.com/,"30013 Old U.S. 20, Elkhart, IN 46514, USA",Nick's Golf Center,not_found,false
267,Edwin Watts Golf - Ridgeland,820 E County Line Rd,"Ridgeland, MS 39157-1903",Ridgeland,MS,UNITED STATES,39157-1903,601-956-8784 ,true,true,-90.143185,32.399982,2019-03-18 14:14:43 UTC,2019-03-28 12:45:36 UTC,ChIJmayvC4fSKYYRCj6KaeVD2-c,https://www.worldwidegolfshops.com/locations/edwin-watts-golf-ridgeland-820-east-county-line-rd-.html,"820 E County Line Rd, Ridgeland, MS 39157, USA",Edwin Watts Golf,not_found,false
268,Uinta Golf - Salt Lake City,560 E 2100 S,"Salt Lake City, UT 84106-1423",Salt Lake City,UT,UNITED STATES,84106-1423,801-487-8233,true,true,-111.864883,40.726008,2019-03-18 14:14:43 UTC,2019-03-28 12:45:42 UTC,ChIJs8FKh7mKUocRN-TCTEfMOs4,https://www.worldwidegolfshops.com/locations/uinta-golf-salt-lake-city-560-e-2100-south.html,"560 E 2100 S, Salt Lake City, UT 84106, USA",Uinta Golf,not_found,false
269,Uinta  Golf - Sandy,10855 S State St,"Sandy, UT 84070-4104",Sandy,UT,UNITED STATES,84070-4104,801-571-5770 ,true,true,-111.889916,40.554188,2019-03-18 14:14:43 UTC,2019-03-28 12:45:48 UTC,ChIJgRYXMrqHUocRNCNEk-usLvk,https://www.worldwidegolfshops.com/locations/uinta-golf-sandy-10855-s-state-street.html,"10855 S State St, Sandy, UT 84070, USA",Uinta Golf,not_found,false
270,Touchet Golf,4130 Engleton Dr,"Fort Wayne, IN 46804-3162",Fort Wayne,IN,UNITED STATES,46804-3162,260-436-4535 ,true,true,-85.196182,41.046026,2019-03-18 14:14:43 UTC,2019-03-28 12:45:53 UTC,ChIJ54FS55PmFYgR4cdbdziv7EM,http://touchetgolf.com/,"4130 Engleton Dr, Fort Wayne, IN 46804, USA",Touchet Performance Golf,not_found,false
272,Edwin Watts Golf - San Antonio,1050 Ne Loop 410,"San Antonio, TX 78209-1201",San Antonio,TX,UNITED STATES,78209-1201,210-822-4060 ,true,true,-98.455779,29.515274,2019-03-18 14:14:43 UTC,2019-03-28 12:45:59 UTC,ChIJqXJf6zP1XIYRIExT3HGVU2g,https://www.worldwidegolfshops.com/locations/edwin-watts-golf-san-antonio-1050-ne-loop-410.html,"1050 NE Interstate 410 Loop, San Antonio, TX 78209, USA",Edwin Watts Golf,not_found,false
273,Edwin Watts Golf - Houston,5395 Westheimer Rd,"Houston, TX 77056-5402",Houston,TX,UNITED STATES,77056-5402,713-627-2411 ,true,true,-95.470408,29.7384,2019-03-18 14:14:43 UTC,2019-03-28 12:46:03 UTC,ChIJv-2T02XBQIYRBl4O276xaTg,https://www.worldwidegolfshops.com/locations/edwin-watts-golf-houston-5395-westheimer-road.html,"5395 Westheimer Rd, Houston, TX 77056, USA",Edwin Watts Golf,not_found,false
274,Miles of Golf Cincinnati,6400 Dixie Hwy,"Fairfield, OH 45014-5422",Fairfield,OH,UNITED STATES,45014-5422,513-870-9057 ,true,true,-84.50315,39.323626,2019-03-18 14:14:43 UTC,2019-03-28 12:46:04 UTC,ChIJ6Uux8CJPQIgRX-zEwWj0elk,http://www.milesofgolf.com/cincinnati/,"6400 Dixie Hwy, Fairfield, OH 45014, USA",Miles of Golf,info@milesofgolf.com,false
275,Man O' War Golf,1201 Man O War Blvd,"Lexington, KY 40513-9762",Lexington,KY,UNITED STATES,40513-9762,859-259-4653,true,true,-84.58536,38.033093,2019-03-18 14:14:43 UTC,2019-03-28 12:46:19 UTC,ChIJAzVJardCQogRleNHQY3MNqs,http://www.manowargolf.com/,"1201 Man O War Blvd, Lexington, KY 40513, USA",Man O' War Golf Learning Center,not_found,false
277,The Honors Course Inc,9603 Lee Hwy,"Ooltewah, TN 37363-6825",Ooltewah,TN,UNITED STATES,37363-6825,423-238-9123,true,true,-85.044678,35.086479,2019-03-18 14:14:43 UTC,2019-03-28 12:46:22 UTC,ChIJ836UyLB9YIgRb-fvt9N2YEg,http://www.honorscourse.net/,"9603 Lee Hwy, Ooltewah, TN 37363, USA",The Honors Course,admin@honorscourse.net,false
278,Pro Golf of Downriver,13248 Fort St,"Southgate, MI 48195-1136",Southgate,MI,UNITED STATES,48195-1136,734-285-7820,true,true,-83.181342,42.211649,2019-03-18 14:14:43 UTC,2019-03-28 12:46:30 UTC,ChIJB7_1TT83O4gR1Jb3gxG1O6o,http://www.southgategolf.com/,"13248 Fort St, Southgate, MI 48195, USA",Pro Golf Discount,not_found,false
279,Uinta Golf - Saint George,2376 Red Cliffs Dr,"St George, UT 84790-8367",St George,UT,UNITED STATES,84790-8367,435-256-6496 ,true,true,-113.5326,37.123087,2019-03-18 14:14:43 UTC,2019-03-28 12:46:33 UTC,ChIJwSkTYQ5byoARSeVHIe5qApI,https://www.worldwidegolfshops.com/locations/uinta-golf-saint-george-2376-e-red-cliffs-dr.html,"2376 E Red Cliffs Dr Suite 312, St. George, UT 84790, USA",Uinta Golf,not_found,false
280,Edwin Watts Golf - Knoxville,11364 Parkside Dr,"Knoxville, TN 37934-1971",Knoxville,TN,UNITED STATES,37934-1971,865-675-3340 ,true,true,-84.160187,35.898522,2019-03-18 14:14:43 UTC,2019-03-28 12:46:37 UTC,ChIJrcv5E_QuXIgRGrXUFrNjNM0,https://www.worldwidegolfshops.com/locations/edwin-watts-golf-knoxville-11364-nw-parkside-drive.html,"11364 NW, Parkside Dr, Knoxville, TN 37934, USA",Edwin Watts Golf,not_found,false
281,Fairways and Greens,626 Simmons Rd,"Knoxville, TN 37932-3227",Knoxville,TN,UNITED STATES,37932-3227,865-777-4653,true,true,-84.139199,35.913708,2019-03-18 14:14:43 UTC,2019-03-28 12:46:41 UTC,ChIJz2wvG64vXIgR1s162441dP0,http://fairwaysandgreens.com/,"626 Simmons Rd, Knoxville, TN 37932, USA",Fairways and Greens Golf Center,not_found,false
282,Edwin Watts Golf - Corpus Christi,4526 S Padre Island Dr,"Corpus Christi, TX 78411-4412",Corpus Christi,TX,UNITED STATES,78411-4412,361-852-0358,true,true,-97.388115,27.717406,2019-03-18 14:14:43 UTC,2019-03-28 12:46:45 UTC,ChIJj1R0wIT1aIYRQC-Q2wL8vp4,https://www.worldwidegolfshops.com/locations/edwin-watts-golf-corpus-christi-4526-south-padre-island-dr-.html,"4526 S Padre Island Dr, Corpus Christi, TX 78411, USA",Edwin Watts Golf,not_found,false
283,Van's Golf Shops - Mesa,801 S Power Rd Ste 115,"Mesa, AZ 85206-5246",Mesa,AZ,UNITED STATES,85206-5246,480-985-0601,true,true,-111.684203,33.399786,2019-03-18 14:14:43 UTC,2019-03-28 12:46:49 UTC,ChIJ82QBdcavK4cRpg8wXKVhp0k,https://www.worldwidegolfshops.com/locations/van-s-golf-shops-mesa-801-s--power-road.html,"801 S Power Rd #115, Mesa, AZ 85206, USA",Van's Golf Shops,not_found,false
284,PGA TOUR Superstore Scottsdale,8740 E Shea Blvd Pima Crossing Shopping Center,"Scottsdale, AZ 85260-6625",Scottsdale,AZ,UNITED STATES,85260-6625,480-214-4350,true,true,-111.892751,33.583785,2019-03-18 14:14:43 UTC,2019-03-28 12:46:49 UTC,ChIJG214MD11K4cRGJds1KGVZ3I,https://www.pgatoursuperstore.com/stores/scottsdale-arizona/0502.html,"8740 E Shea Blvd, Scottsdale, AZ 85260, USA",PGA TOUR Superstore,contact@pgatoursuperstore.com,false
285,Arizona Golf Works,1920 E University Dr Ste 106,"Tempe, AZ 85281-4608",Tempe,AZ,UNITED STATES,85281-4608,480-966-7007,true,true,-111.904519,33.42262,2019-03-18 14:14:43 UTC,2019-03-28 12:47:03 UTC,ChIJZ5aSF_gIK4cRrjmNEpM9e-I,http://www.azgolfworks.com/,"1920 E University Dr #106, Tempe, AZ 85281, USA",Arizona Golf Works,not_found,false
286,PGA TOUR Superstore Chandler,2031 N Arizona Ave,"Chandler, AZ 85225-3409",Chandler,AZ,UNITED STATES,85225-3409,480-214-4370,true,true,-111.839142,33.336236,2019-03-18 14:14:43 UTC,2019-03-28 12:47:04 UTC,ChIJU6PHs-mpK4cRpYiiouyIEts,https://www.pgatoursuperstore.com/stores/chandler-arizona/0501.html,"2031 N Arizona Ave, Chandler, AZ 85225, USA",PGA TOUR Superstore,contact@pgatoursuperstore.com,false
287,Van's Golf Shops - Phoenix,3217 E Camelback Rd,"Phoenix, AZ 85018-2307",Phoenix,AZ,UNITED STATES,85018-2307,602-957-0001,true,true,-112.011698,33.509873,2019-03-18 14:14:43 UTC,2019-03-28 12:47:10 UTC,ChIJV_1VoBoNK4cRg9az2_kaENM,https://www.worldwidegolfshops.com/locations/van-s-golf-shops-phoenix-3217-e--camelback-road.html,"3217 E Camelback Rd, Phoenix, AZ 85018, USA",Van's Golf Shops,not_found,false
289,Van's Golf Shops - Sun City,10001 W Bell Rd Ste 118,"Sun City, AZ 85351-1297",Sun City,AZ,UNITED STATES,85351-1297,623-972-0171,true,true,-112.275823,33.637239,2019-03-18 14:14:43 UTC,2019-03-28 12:47:16 UTC,ChIJ2_hTSuZCK4cRJaw_imiLZfk,https://www.worldwidegolfshops.com/locations/van-s-golf-shops-sun-city-10001-west-bell-road.html,"10001 W Bell Rd Ste. #118, Sun City, AZ 85351, USA",Van's Golf Shops,not_found,false
290,Falcon Dunes Golf Course,15100 W Northern Ave,"Waddell, AZ 85355-9411",Waddell,AZ,UNITED STATES,85355-9411,623-535-8355,true,true,-112.385869,33.552113,2019-03-18 14:14:43 UTC,2019-03-28 12:47:30 UTC,ChIJH9ZKItZFK4cReBMrxe9C8Pk,http://www.lukeevents.com/golf/,"15100 W Northern Ave, Waddell, AZ 85355, USA",Falcon Dunes Golf Course,not_found,false
291,PGA TOUR Superstore Roswell,1005 Holcomb Woods Pkwy,"Roswell, GA 30076-2738",Roswell,GA,UNITED STATES,30076-2738,770-640-0933,true,true,-84.314934,34.02069,2019-03-18 14:14:43 UTC,2019-03-28 12:47:31 UTC,ChIJ90mD9NUK9YgRB3gFynLVDKM,https://www.pgatoursuperstore.com/stores/roswell-georgia/0101.html,"1005 Holcomb Woods Pkwy, Roswell, GA 30076, USA",PGA TOUR Superstore,contact@pgatoursuperstore.com,false
292,Edwin Watts Golf - Atlanta,3150 Piedmont Rd Ne,"Atlanta, GA 30305-2508",Atlanta,GA,UNITED STATES,30305-2508,404-816-2166 ,true,true,-84.371247,33.842404,2019-03-18 14:14:43 UTC,2019-03-28 12:47:37 UTC,ChIJucfMFfQF9YgRVCxoc9Rn5nk,https://www.worldwidegolfshops.com/locations/edwin-watts-golf-atlanta-3150-piedmont-rd-ne.html,"3150 Piedmont Rd NE, Atlanta, GA 30305, USA",Edwin Watts Golf,not_found,false
293,PGA TOUR Superstore Sugarloaf,2255 Newpoint Pkwy,"Lawrenceville, GA 30043-5509",Lawrenceville,GA,UNITED STATES,30043-5509,678-781-3800,true,true,-84.088494,33.975381,2019-03-18 14:14:43 UTC,2019-03-28 12:47:38 UTC,ChIJ6xPM7Ca99YgRi0mVJr2bNZY,https://www.pgatoursuperstore.com/stores/sugarloaf-lawrenceville-georgia/1201.html,"2255 Newpoint Pkwy, Lawrenceville, GA 30043, USA",PGA TOUR Superstore,contact@pgatoursuperstore.com,false
295,Windmill Lakes Golf Club,6544 State Route 14,"Ravenna, OH 44266-9693",Ravenna,OH,UNITED STATES,44266-9693,330-297-0440,true,true,-81.220678,41.163908,2019-03-18 14:14:43 UTC,2019-03-28 12:47:39 UTC,ChIJ14cnITs5MYgRujhbTc6ZtSQ,http://www.golfwindmilllakes.com/,"6544 OH-14, Ravenna, OH 44266, USA",Windmill Lakes Golf Club,contact@golfwindmilllakes.com,false
297,Golf Headquarters,2224 N 10th St,"Mcallen, TX 78501-4002",Mcallen,TX,UNITED STATES,78501-4002,956-687-3942 ,true,true,-98.225933,26.223564,2019-03-18 14:14:43 UTC,2019-03-28 12:47:44 UTC,ChIJhSjhHiynZYYRwzibvgTL4Pg,https://golfheadquarters.com/,"2224 N 10th St, McAllen, TX 78501, USA",Golf Headquarters,not_found,false
298,Golf Headquarters,1401 Boardman Canfield Rd,"Youngstown, OH 44512-4008",Youngstown,OH,UNITED STATES,44512-4008,330-726-3880,true,true,-80.707239,41.024108,2019-03-18 14:14:43 UTC,2019-03-28 12:47:51 UTC,ChIJZ4O4DJ77M4gRmH7zHMpGbvg,http://www.golfhq.com/,"1401 Boardman-Canfield Rd, Youngstown, OH 44512, USA",Golf Headquarters,not_found,false
299,Woods To Wedges,8230 Wehrle Dr,"Buffalo, NY 14221-7325",Buffalo,NY,UNITED STATES,14221-7325,716-632-3021,true,true,-78.688667,42.956916,2019-03-18 14:14:43 UTC,2019-03-28 12:47:57 UTC,ChIJuSpFKg9104kRGEv-9sY3B4g,http://woodstowedgesbuffalo.com/,"8230 Wehrle Dr, Buffalo, NY 14221, USA",Woods to Wedges,not_found,false
300,Blair County Golf & Driving Range,2644 Old Frankstown Rd,"Hollidaysburg, PA 16648-7168",Hollidaysburg,PA,UNITED STATES,16648-7168,814-695-3675,true,true,-78.355043,40.456344,2019-03-18 14:14:43 UTC,2019-03-28 12:48:05 UTC,ChIJ5aOPkoqTy4kRQ-QFmsZjVbA,http://www.oemclubfitters.com/,"2644 Old Frankstown Rd, Hollidaysburg, PA 16648, USA",Blair County Golf Driving Range,not_found,false
301,Pete Carlsons Golf and Tennis Shop,73 741 Hwy 111,"Palm Desert, CA 92260",Palm Desert,CA,UNITED STATES,92260,760-568-3263,true,true,-116.378546,33.720949,2019-03-18 14:14:43 UTC,2019-03-28 12:48:08 UTC,ChIJPf6gYXv-2oARITJn1L8lgx0,http://www.petecarlsonsgolf.com/,"73741 CA-111, Palm Desert, CA 92260, USA",Pete Carlson's Golf & Tennis Shop,contact@petecarlsonsgolf.com,false
302,PGA TOUR Superstore Palm Desert,72280 Highway 111,"Palm Desert, CA 92260-2743",Palm Desert,CA,UNITED STATES,92260-2743,760-601-3450,true,true,-116.407585,33.691728,2019-03-18 14:14:43 UTC,2019-03-28 12:48:09 UTC,ChIJh05V3OP92oARPLF2GYnD9wc,https://www.pgatoursuperstore.com/stores/palm-desert-california/0803.html,"72280 CA-111, Palm Desert, CA 92260, USA",PGA TOUR Superstore,contact@pgatoursuperstore.com,false
303,Edwin Watts Golf - Savannah,7700 Abercorn St,"Savannah, GA 31406-2459",Savannah,GA,UNITED STATES,31406-2459,912-355-0815 ,true,true,-81.114597,32.00687,2019-03-18 14:14:43 UTC,2019-03-28 12:48:13 UTC,ChIJTX46gal1-4gRIUY8GyjLY_M,https://www.worldwidegolfshops.com/locations/edwin-watts-golf-savannah-7700-abercorn-street.html,"7700 Abercorn St, Savannah, GA 31406, USA",Edwin Watts Golf,not_found,false
304,Valley Golf,26475 Ynez Rd,"Temecula, CA 92591-4683",Temecula,CA,UNITED STATES,92591-4683,951-296-1234 ,true,true,-117.157203,33.521127,2019-03-18 14:14:43 UTC,2019-03-28 12:48:30 UTC,ChIJZQQR6zt-24ARJMjLthlBPsU,https://www.valleygolfstores.com/,"26475 Ynez Rd, Temecula, CA 92591, USA",Valley Golf,not_found,false
305,PGA TOUR Superstore Hilton Head ,1129 Fording Island Rd,"Bluffton, SC 29910",Bluffton,SC,UNITED STATES,29910,843-837-4653,true,true,-80.84348,32.25189,2019-03-18 14:14:43 UTC,2019-03-28 12:48:31 UTC,ChIJaedTYq2J-4gRU3VmM_nw3V0,https://www.pgatoursuperstore.com/stores/hilton-head-south-carolina/1208.html,"1129 Fording Island Rd, Bluffton, SC 29910, USA",PGA TOUR Superstore,contact@pgatoursuperstore.com,false
306,Bretton Woods Rec Center Inc,15700 River Rd,"Germantown, MD 20874-3534",Germantown,MD,UNITED STATES,20874-3534,301-948-5405,true,true,-77.331744,39.075753,2019-03-18 14:14:43 UTC,2019-03-28 12:48:32 UTC,ChIJCdXyJf0wtokRn-eDvQniJeQ,http://www.bwrc.org/,"15700 River Rd, Germantown, MD 20874, USA",Bretton Woods Recreation Center,info@bwrc.org,false
307,Fairway Golf Inc,5040 Convoy St Ste A,"San Diego, CA 92111-1628",San Diego,CA,UNITED STATES,92111-1628,858-268-1702,true,true,-117.15374,32.833539,2019-03-18 14:14:43 UTC,2019-03-28 12:48:34 UTC,ChIJLw-RpZn_24ARuGce94YjtzA,http://www.fairwaygolfusa.com/,"5040 Convoy St Faculty Office, San Diego, CA 92111, USA",Fairway Golf USA,contact@fairwaygolfusa.com,false
308,Roger Dunn - Mission Viejo,28191 Marguerite Pkwy # 16,"Mission Viejo, CA 92692-3735",Mission Viejo,CA,UNITED STATES,92692-3735,949-364-1611,true,true,-117.670893,33.552779,2019-03-18 14:14:43 UTC,2019-03-28 12:48:38 UTC,ChIJi-KVd_Xu3IARcvsx3otIrLU,https://www.worldwidegolfshops.com/locations/roger-dunn-golf-shops-mission-viejo-28191-marguerite-parkway.html,"28191 Marguerite Pkwy #16, Mission Viejo, CA 92692, USA",Roger Dunn Golf Shops,not_found,false
309,The Golf Mart - San Diego,1231 Camino Del Rio S,"San Diego, CA 92108-3584",San Diego,CA,UNITED STATES,92108-3584,619-298-9571,true,true,-117.151885,32.764768,2019-03-18 14:14:43 UTC,2019-03-28 12:48:43 UTC,ChIJQQKLTiJV2YARPexIT31bWpI,https://www.worldwidegolfshops.com/locations/the-golf-mart-san-diego-1231-camino-del-rio-south.html,"1231 Camino del Rio S, San Diego, CA 92108, USA",The Golf Mart,not_found,false
310,Roger Dunn - Seal Beach,13958 Seal Beach Blvd,"Seal Beach, CA 90740-5301",Seal Beach,CA,UNITED STATES,90740-5301,562-598-1300,true,true,-118.078828,33.760486,2019-03-18 14:14:43 UTC,2019-03-28 12:48:47 UTC,ChIJnQVlMb0v3YARSqFFfxHG_rw,https://www.worldwidegolfshops.com/locations/roger-dunn-golf-shops-seal-beach-13958-seal-beach-blvd.html,"13958 Seal Beach Blvd, Seal Beach, CA 90740, USA",Roger Dunn Golf Shops,not_found,false
311,Roger Dunn - North Hollywood,5445 Lankershim Blvd,"North Hollywood, CA 91601-2723",North Hollywood,CA,UNITED STATES,91601-2723,818-763-3622,true,true,-118.363726,34.16588,2019-03-18 14:14:43 UTC,2019-03-28 12:48:50 UTC,ChIJiSnmRO6VwoAR2L4ZEb8jIc4,https://www.worldwidegolfshops.com/locations/roger-dunn-golf-shops-north-hollywood-5445-lankershim-blvd-.html,"5445 Lankershim Blvd, North Hollywood, CA 91601, USA",Roger Dunn Golf Shops,not_found,false
312,Roger Dunn - Los Angeles,1801 S Bundy Dr,"Los Angeles, CA 90025-5201",Los Angeles,CA,UNITED STATES,90025-5201,310-826-9003,true,true,-118.458147,34.035613,2019-03-18 14:14:43 UTC,2019-03-28 12:48:54 UTC,ChIJ-1TlQmu7woARVkiIiZsFAdo,https://www.worldwidegolfshops.com/locations/roger-dunn-golf-shops-los-angeles-1801-s--bundy-drive.html,"1801 S Bundy Dr, Los Angeles, CA 90025, USA",Roger Dunn Golf Shops,not_found,false
313,Roger Dunn - Fresno,5618 N Blackstone Ave,"Fresno, CA 93710-5004",Fresno,CA,UNITED STATES,93710-5004,559-436-0464,true,true,-119.789229,36.820124,2019-03-18 14:14:43 UTC,2019-03-28 12:48:58 UTC,ChIJI1dhC_ZnlIAR6_bRWDiG6YM,https://therogerdunngolf.com/?utm_source=local&utm_medium=organic&utm_campaign=gmb_fresno,"5618 N Blackstone Ave, Fresno, CA 93710, USA",Roger Dunn Golf Shops - Fresno,not_found,false
314,Edwin Watts Golf - Jacksonville,9365 Philips Hwy Ste 110,"Jacksonville, FL 32256-1360",Jacksonville,FL,UNITED STATES,32256-1360,904-332-0933 ,true,true,-81.570008,30.19732,2019-03-18 14:14:43 UTC,2019-03-28 12:49:01 UTC,ChIJ5-xCPhvK5YgRB4eyVv0rI1M,https://www.worldwidegolfshops.com/locations/edwin-watts-golf-jacksonville-9365-philips-hwy.html,"9365 Philips Hwy Ste 110, Jacksonville, FL 32256, USA",Edwin Watts Golf,not_found,false
315,PGA TOUR Superstore Myrtle Beach,1400 29th Ave N,"Myrtle Beach, SC 29577-3191",Myrtle Beach,SC,UNITED STATES,29577-3191,843-839-4653 ,true,true,-78.880951,33.721741,2019-03-18 14:14:43 UTC,2019-03-28 12:49:02 UTC,ChIJF23tKN9oAIkR3MTXdKzKLpo,https://www.pgatoursuperstore.com/stores/myrtle-beach-south-carolina/0302.html,"1400 29th Ave N, Myrtle Beach, SC 29577, USA",PGA TOUR Superstore,contact@pgatoursuperstore.com,false
316,Arundel Golf Park,1501 Dorsey Rd,"Glen Burnie, MD 21061-3272",Glen Burnie,MD,UNITED STATES,21061-3272,410-761-1295,true,true,-76.656324,39.163115,2019-03-18 14:14:43 UTC,2019-03-28 12:49:08 UTC,ChIJSzr9TCTjt4kRacY643nCn6Y,http://www.arundelgolfpark.com/,"1501 Dorsey Rd, Glen Burnie, MD 21061, USA",Arundel Golf Park,not_found,false
317,The First Tee Golf Shop,508 N Spence Ave Ste C,"Goldsboro, NC 27534-4243",Goldsboro,NC,UNITED STATES,27534-4243,919-778-7963,true,true,-77.947047,35.377665,2019-03-18 14:14:43 UTC,2019-03-28 12:49:11 UTC,ChIJDQXYSOoBrIkRJJ7mtlcA3ko,http://www.firstteegolfshop.com/,"508 N Spence Ave # C, Goldsboro, NC 27534, USA",First Tee Golf Shop,info@firstteegolfshop.com,false
318,Night Hawk Golf Center,814 Md Route 3 S,"Gambrills, MD 21054-1621",Gambrills,MD,UNITED STATES,21054-1621,410-721-9349 X10,true,true,-76.670147,39.043986,2019-03-18 14:14:43 UTC,2019-03-28 12:49:14 UTC,ChIJLdZMWonvt4kRHBJRmxHHbqQ,http://nighthawkgolfcenter.com/,"814 Route 3 South, Gambrills, MD 21054, USA",Night Hawk Golf Center,not_found,false
319,PGA TOUR Superstore North Myrtle Beach,2310 Highway 17 S,"North Myrtle Beach, SC 29582-4342",North Myrtle Beach,SC,UNITED STATES,29582-4342,843-272-6030,true,true,-78.680016,33.816006,2019-03-18 14:14:43 UTC,2019-03-28 12:49:15 UTC,ChIJve-ddS1jAIkRfcypP5K_hws,https://www.pgatoursuperstore.com/stores/north-myrtle-beach-south-carolina/0301.html,"2310 Hwy 17 S, North Myrtle Beach, SC 29582, USA",PGA TOUR Superstore,contact@pgatoursuperstore.com,false
320,Dukes Golf Llc,2444 Solomons Island Rd,"Annapolis, MD 21401-3719",Annapolis,MD,UNITED STATES,21401-3719,410-224-4653 ,true,true,-76.55828,38.957864,2019-03-18 14:14:43 UTC,2019-03-28 12:49:20 UTC,ChIJHcTGD8n2t4kRe_xBuMGco_4,http://www.dukesgolf.net/,"2444 Solomons Island Rd, Annapolis, MD 21401, USA",Duke's Golf LLC,not_found,false
321,Roger Dunn - Newbury Park,2810 Camino Dos Rios,"Newbury Park, CA 91320-1105",Newbury Park,CA,UNITED STATES,91320-1105,805-375-7755,true,true,-118.936295,34.19052,2019-03-18 14:14:43 UTC,2019-03-28 12:49:24 UTC,ChIJw9osb7sw6IARXiM4W0Rsgl8,https://www.worldwidegolfshops.com/locations/roger-dunn-golf-shops-newbury-park-2810-camino-dos-rios.html,"2810 Camino Dos Rios, Newbury Park, CA 91320, USA",Roger Dunn Golf Shops,not_found,false
322,Shenendoah Golf Course Pro Shop,5518 State Route 13,"Verona, NY 13478",Verona,NY,UNITED STATES,13478,315-829-4653,true,true,-75.570695,43.138146,2019-03-18 14:14:43 UTC,2019-03-28 12:49:25 UTC,ChIJp5H318Rz2YkRKGCwz2MrY-U,https://www.turningstone.com/golf/shenendoah,"5218 Patrick Rd, Verona, NY 13478, USA",Shenendoah Golf Club,info@turningstone.com,false
323,Edwin Watts Golf - Palm Harbor,32257 Us Highway 19 N,"Palm Harbor, FL 34684-3708",Palm Harbor,FL,UNITED STATES,34684-3708,727-787-3370 ,true,true,-82.723924,28.071577,2019-03-18 14:14:43 UTC,2019-03-28 12:49:29 UTC,ChIJKTzAb4HywogRP-v04cqM3tc,https://www.worldwidegolfshops.com/locations/edwin-watts-golf-palm-harbor-32257-us-hwy-19-n.html,"32257 US Hwy 19 N, Palm Harbor, FL 34684, USA",Edwin Watts Golf,not_found,false
324,Golf Etc Lakeland,1527 Town Center Dr,"Lakeland, FL 33803-7968",Lakeland,FL,UNITED STATES,33803-7968,863-687-7274,true,true,-81.980207,28.000771,2019-03-18 14:14:43 UTC,2019-03-28 12:49:41 UTC,ChIJ16CthxY53YgRay6bR4p3wtc,http://www.golfetclakeland.com/,"1527 Town Center Dr, Lakeland, FL 33803, USA",Golf Etc. Lakeland,not_found,false
325,The Golf Mart - Walnut Creek,2099 Mt Diablo Blvd,"Walnut Creek, CA 94596-8495",Walnut Creek,CA,UNITED STATES,94596-8495,925-588-0199,true,true,-122.069629,37.896275,2019-03-18 14:14:43 UTC,2019-03-28 12:49:44 UTC,ChIJ2xV2HO1hhYARoLnnH2YZPjU,https://www.worldwidegolfshops.com/locations/the-golf-mart-walnut-creek-1299-parkside-drive.html,"1299 Parkside Dr, Walnut Creek, CA 94596, USA",The Golf Mart,not_found,false
326,Smittys Dot Golf,11616 Ne Halsey St,"Portland, OR 97220-2031",Portland,OR,UNITED STATES,97220-2031,503-408-1216,true,true,-122.543515,45.533161,2019-03-18 14:14:43 UTC,2019-03-28 12:49:53 UTC,ChIJQ3WZnH6hlVQRtwPXK-HAzpg,https://www.dotgolf.com/,"11616 NE Halsey St, Portland, OR 97220, USA",Smitty's Dot Golf,not_found,false
327,PGA TOUR Superstore East Palo Alto,1751 E Bayshore Rd,"East Palo Alto, CA 94303-2523",East Palo Alto,CA,UNITED STATES,94303-2523,650-600-5200,true,true,-122.136768,37.461576,2019-03-18 14:14:43 UTC,2019-03-28 12:49:54 UTC,ChIJK3Sf23O7j4ARnJB26ZNF35w,https://www.pgatoursuperstore.com/stores/east-palo-alto-california/0801.html,"1751 E Bayshore Rd, East Palo Alto, CA 94303, USA",PGA TOUR Superstore,contact@pgatoursuperstore.com,false
328,The Golf Mart - Seaside,2040 Fremont Blvd,"Seaside, CA 93955-3104",Seaside,CA,UNITED STATES,93955-3104,831-583-1000,true,true,-121.839999,36.620161,2019-03-18 14:14:43 UTC,2019-03-28 12:49:58 UTC,ChIJpY2URJPkjYARcYQlLloOkw4,https://www.worldwidegolfshops.com/locations/the-golf-mart-seaside-2040-fremont-blvd.html,"2040 Fremont Blvd, Seaside, CA 93955, USA",The Golf Mart,not_found,false
329,Puetz Bellevue,1645 140th Ave Ne,"Bellevue, WA 98005-2320",Bellevue,WA,UNITED STATES,98005-2320,425-747-0664 STORE,true,true,-122.154826,47.625589,2019-03-18 14:14:43 UTC,2019-03-28 12:50:16 UTC,ChIJ6VrBxqptkFQR6tESav7jrB4,http://www.puetzgolf.com/puetz-golf-bellevue-superstore,"1645 140th Ave NE B13, Bellevue, WA 98005, USA",Puetz Golf Bellevue Superstore,not_found,false
330,PGA TOUR Superstore Paramus,295 N Route 17,"Paramus, NJ 07652-2905",Paramus,NJ,UNITED STATES,07652-2905,201-649-9170,true,true,-74.072324,40.941625,2019-03-18 14:14:43 UTC,2019-03-28 12:50:17 UTC,ChIJ99c8Wvv6wokRNVKkYgFXKPE,https://www.pgatoursuperstore.com/stores/paramus-new-jersey/0901.html,"295 NJ-17, Paramus, NJ 07652, USA",PGA TOUR Superstore,contact@pgatoursuperstore.com,false
331,The Golf Mart - San Rafael,530 Francisco Blvd W,"San Rafael, CA 94901-3963",San Rafael,CA,UNITED STATES,94901-3963,415-721-0626,true,true,-122.516953,37.965344,2019-03-18 14:14:43 UTC,2019-03-28 12:50:22 UTC,ChIJxWbU0hiahYARSl3sxC03zng,https://www.worldwidegolfshops.com/locations/the-golf-mart-san-rafael-530-francisco-blvd--west.html,"530 Francisco Blvd W, San Rafael, CA 94901, USA",The Golf Mart,not_found,false
332,The Golf Mart - South San Francisco,470a Noor Ave,"South San Francisco, CA 94080-5957",South San Francisco,CA,UNITED STATES,94080-5957,650-583-4653,true,true,-122.422105,37.641577,2019-03-18 14:14:43 UTC,2019-03-28 12:50:28 UTC,ChIJGwDaaL55j4ARtpW5AvU27VU,https://www.worldwidegolfshops.com/locations/the-golf-mart-south-san-francisco-470-a-noor-avenue.html,"470-A Noor Ave, South San Francisco, CA 94080, USA",The Golf Mart,not_found,false
333,Puetz Tacoma,6409 Tacoma Mall Blvd,"Tacoma, WA 98409-6736",Tacoma,WA,UNITED STATES,98409-6736,253-474-8288 ,true,true,-122.46265,47.198851,2019-03-18 14:14:43 UTC,2019-03-28 12:50:46 UTC,ChIJ7VFF2SIAkVQRWIHgkXgn44U,http://www.puetzgolf.com/puetz-golf-tacoma-superstore,"6409 Tacoma Mall Blvd, Tacoma, WA 98409, USA",Puetz Golf Tacoma Superstore,not_found,false
334,The Golf Mart - Santa Rosa,2768 Santa Rosa Ave,"Santa Rosa, CA 95407-6220",Santa Rosa,CA,UNITED STATES,95407-6220,707-584-4466,true,true,-122.713479,38.396609,2019-03-18 14:14:43 UTC,2019-03-28 12:50:51 UTC,ChIJ755PIQRKhIARhb6f8eslKwQ,https://www.worldwidegolfshops.com/locations/the-golf-mart-santa-rosa-2768-santa-rosa-ave.html,"2768 Santa Rosa Ave, Santa Rosa, CA 95407, USA",The Golf Mart,not_found,false
335,PGA TOUR Superstore Westbury,1254 Corporate Dr,"Westbury, NY 11590-6625",Westbury,NY,UNITED STATES,11590-6625,516-824-3000,true,true,-73.59073,40.741331,2019-03-18 14:14:43 UTC,2019-03-28 12:50:52 UTC,ChIJHcgbumOHwokR5v7H-6z8p0U,https://www.pgatoursuperstore.com/stores/westbury-new-york/1101.html,"1254 Corporate Dr, Westbury, NY 11590, USA",PGA TOUR Superstore,contact@pgatoursuperstore.com,false
336,The Golf and Casual Shop,11900 S Cleveland Ave,"Fort Myers, FL 33907-2971",Fort Myers,FL,UNITED STATES,33907-2971,239-936-8753,true,true,-81.872638,26.56793,2019-03-18 14:14:43 UTC,2019-03-28 12:50:58 UTC,ChIJsePK3gZA24gR_CeTr1TQpsw,http://golfandcasualshop.com/,"11900 S Cleveland Ave, Fort Myers, FL 33907, USA",The Golf & Casual Shop,not_found,false
337,PGA TOUR Superstore Naples,2135 Tamiami Trl N,"Naples, FL 34102-4820",Naples,FL,UNITED STATES,34102-4820,239-384-6380 ,true,true,-81.799836,26.173299,2019-03-18 14:14:43 UTC,2019-03-28 12:50:58 UTC,ChIJ9_ZpD-jh2ogR04NBV0l_KrM,https://www.pgatoursuperstore.com/stores/naples-florida/0201.html,"2135 Tamiami Trail N, Naples, FL 34102, USA",PGA TOUR Superstore,contact@pgatoursuperstore.com,false
338,Golfers Warehouse - Brainard,75 Brainard Rd,"Hartford, CT 06114-1603",Hartford,CT,UNITED STATES,06114-1603,860-522-6829 ,true,true,-72.660027,41.738954,2019-03-18 14:14:43 UTC,2019-03-28 12:51:02 UTC,ChIJIcgaK6pT5okRegO7uGN00zA,https://www.worldwidegolfshops.com/locations/golfers-warehouse-hartford-75-brainard-road.html,"75 Brainard Rd, Hartford, CT 06114, USA",Golfers Warehouse,not_found,false
340,Edwin Watts Golf - Palm Beach Gardens,3889 Northlake Blvd,"Palm Beach Gardens, FL 33403-1509",Palm Beach Gardens,FL,UNITED STATES,33403-1509,561-625-6430 ,true,true,-80.09576,26.809339,2019-03-18 14:14:43 UTC,2019-03-28 12:51:06 UTC,ChIJJ6_W3VjV2IgRlM_qA-HhR0M,https://www.worldwidegolfshops.com/locations/edwin-watts-golf-palm-beach-gardens-3889-northlake-blvd-.html,"3889 Northlake Blvd, Palm Beach Gardens, FL 33403, USA",Edwin Watts Golf,not_found,false
341,PGA TOUR Superstore Delray,1040 Linton Blvd Delray Crossing Shipping Center,"Delray Beach, FL 33444-1104",Delray Beach,FL,UNITED STATES,33444-1104,561-214-7000,true,true,-80.08366,26.439528,2019-03-18 14:14:43 UTC,2019-03-28 12:51:06 UTC,ChIJD8TS1xHg2IgR4EBZ4hY5Vck,https://www.pgatoursuperstore.com/stores/delray-beach--florida/0202.html,"1040 Linton Blvd, Delray Beach, FL 33444, USA",PGA TOUR Superstore,contact@pgatoursuperstore.com,false
342,Golfers Warehouse - Cranston,60 Freeway Dr,"Cranston, RI 02920-7936",Cranston,RI,UNITED STATES,02920-7936,401-467-8740 ,true,true,-71.450038,41.75061,2019-03-18 14:14:43 UTC,2019-03-28 12:51:12 UTC,ChIJwQwnf-xO5IkR9wD1KX8664Q,https://www.worldwidegolfshops.com/locations/golfers-warehouse-cranston-60-freeway-drive.html,"60 Freeway Dr, Cranston, RI 02920, USA",Golfers Warehouse,not_found,false
343,Edwin Watts Golf - North Miami Beach,15999 Biscayne Blvd,"North Miami Beach, FL 33160-4602",North Miami Beach,FL,UNITED STATES,33160-4602,305-944-2925 ,true,true,-80.157073,25.915391,2019-03-18 14:14:43 UTC,2019-03-28 12:51:17 UTC,ChIJ2wOV_pat2YgRpQOWjcNpuZM,https://www.worldwidegolfshops.com/locations/edwin-watts-golf-north-miami-beach-15100-n--biscayne-blvd-.html,"15999 Biscayne Blvd, North Miami Beach, FL 33160, USA",Edwin Watts Golf,not_found,false
344,Whirlaway Golf Center Inc,500 Merrimack St,"Methuen, MA 01844-4705",Methuen,MA,UNITED STATES,01844-4705,978-688-8356,true,true,-71.131197,42.753776,2019-03-18 14:14:43 UTC,2019-03-28 12:51:27 UTC,ChIJFShW9ToB44kRNdBc7NqXnLk,http://www.whirlawaygolfshop.com/,"500 Merrimack St, Methuen, MA 01844, USA",Whirlaway Golf Center,not_found,false
345,Golfers Warehouse - Braintree,2 Campanelli Dr,"Braintree, MA 02184-5209",Braintree,MA,UNITED STATES,02184-5209,781-848-9777 ,true,true,-71.024482,42.202088,2019-03-18 14:14:43 UTC,2019-03-28 12:51:32 UTC,ChIJG4S2El1944kRwUF_6J5vFf8,https://www.worldwidegolfshops.com/locations/golfers-warehouse-braintree-2-campanelli-drive.html,"2 Campanelli Dr, Braintree, MA 02184, USA",Golfers Warehouse,not_found,false
346,Golfers Warehouse - Danvers,4 Newbury St Danvers Crossing Mall,"Danvers, MA 01923-1049",Danvers,MA,UNITED STATES,01923-1049,978-777-4653 ,true,true,-70.980168,42.557074,2019-03-18 14:14:43 UTC,2019-03-28 12:51:38 UTC,ChIJyWG3bBgS44kRGzVZaHdH3iM,https://www.worldwidegolfshops.com/locations/golfers-warehouse-danvers-4-newbury-street.html,"4 Newbury St, Danvers, MA 01923, USA",Golfers Warehouse,not_found,false
349,Celebration Golf Club Pro Shop,701 Golfpark Dr,"Celebration, FL 34747-4627",Celebration,FL,UNITED STATES,34747-4627,407-566-4653,true,true,-81.542075,28.323493,2019-03-18 14:14:43 UTC,2019-03-28 12:51:42 UTC,ChIJKYYFHzR_3YgRzDP_OfyyBfA,http://www.celebrationgolf.com/,"701 Golfpark Dr, Kissimmee, FL 34747, USA",Celebration Golf Club,admin@celebrationgolf.com,false
350,PGA Golf Club,1916 Perfect Dr,"Port Saint Lucie, FL 34986-3029",Port Saint Lucie,FL,UNITED STATES,34986-3029,772-468-7686,true,true,-80.426919,27.310602,2019-03-18 14:14:43 UTC,2019-03-28 12:51:44 UTC,ChIJPbZEzp3s3ogRzMmKCDOimLU,http://www.pgavillage.com/,"1916 Perfect Dr, Port St. Lucie, FL 34986, USA",PGA Golf Club at PGA Village,contact@pgavillage.com,false
354,Golf Galaxy Overland Park,12020 Metcalf Ave,"Overland Park, KS 66213-1122",Overland Park,KS,UNITED STATES,66213-1122,913-317-8335,true,true,-94.6702,38.90981,2019-03-18 14:14:43 UTC,2019-03-28 12:51:45 UTC,ChIJwVZRD2zqwIcRlenoBDA8cv8,https://stores.golfgalaxy.com/ks/overland-park/3226/?seo=localpack,"12020 Metcalf Ave, Overland Park, KS 66213, USA",Golf Galaxy,contact@golfgalaxy.com,false
356,Golf Galaxy - West Des Moines,4520 University Ave Ste 110,"West Des Moines, IA 50266-1070",West Des Moines,IA,UNITED STATES,50266-1070,515-225-2226,true,true,-93.766516,41.598773,2019-03-18 14:14:43 UTC,2019-03-28 12:51:46 UTC,ChIJn2vYgOog7IcRpImEQ5H2bP4,https://stores.golfgalaxy.com/ia/west-des-moines/3006/?seo=localpack,"4520 University Ave, West Des Moines, IA 50266, USA",Golf Galaxy,contact@golfgalaxy.com,false
357,Kinley Golf and Sport Center,5101 Fleur Dr,"Des Moines, IA 50321-2831",Des Moines,IA,UNITED STATES,50321-2831,515-285-9174,true,true,-93.644677,41.537774,2019-03-18 14:14:43 UTC,2019-03-28 12:52:08 UTC,ChIJkf5ffAyi7ocRPV9klFdJaDA,http://www.kinleysgolfsales.com/,"5101 Fleur Dr, Des Moines, IA 50321, USA",Kinley's Golf & Bowling Sales,not_found,false
358,Golf Galaxy Oklahoma City,2120 W Memorial Rd,"Oklahoma City, OK 73134-8014",Oklahoma City,OK,UNITED STATES,73134-8014,405-751-1284 ,true,true,-97.55026,35.60689,2019-03-18 14:14:43 UTC,2019-03-28 12:52:09 UTC,ChIJt51jbGwcsocRSfrxaw0DGUI,https://stores.golfgalaxy.com/ok/oklahoma-city/3241/?seo=localpack,"2120 W Memorial Rd, Oklahoma City, OK 73134, USA",Golf Galaxy,contact@golfgalaxy.com,false
359,Bakers Custom Golf,9909 E 61st St,"Tulsa, OK 74133-1504",Tulsa,OK,UNITED STATES,74133-1504,918-252-4422 ,true,true,-95.865464,36.075702,2019-03-18 14:14:43 UTC,2019-03-28 12:52:12 UTC,ChIJSTFqPKiNtocR77N1i1qNGI4,http://bakerscustomgolf.com/,"9909 E 61st St, Tulsa, OK 74133, USA",Baker's Custom Golf,not_found,false
360,Golf Galaxy  Tulsa,9121 E 71st St,"Tulsa, OK 74133-3124",Tulsa,OK,UNITED STATES,74133-3124,918-249-1137,true,true,-95.873755,36.062366,2019-03-18 14:14:43 UTC,2019-03-28 12:52:13 UTC,ChIJdez1YLyNtocRWY3qodWWAfw,https://stores.golfgalaxy.com/ok/tulsa/3057/?seo=localpack,"9121 E 71st St, Tulsa, OK 74133, USA",Golf Galaxy,contact@golfgalaxy.com,false
361,Lake Hefner Golf Course,4491 S Lake Hefner Dr,"Oklahoma City, OK 73116-1530",Oklahoma City,OK,UNITED STATES,73116-1530,405-843-1565,true,true,-97.599956,35.543374,2019-03-18 14:14:43 UTC,2019-03-28 12:52:16 UTC,ChIJoZ7eItgasocRVcrBXnmChhA,http://okcgolf.com/,"4491 S Lake Hefner Dr, Oklahoma City, OK 73116, USA",Lake Hefner Golf Club,not_found,false
362,Golf Galaxy Englewood,9657 E County Line Rd,"Englewood, CO 80112-3502",Englewood,CO,UNITED STATES,80112-3502,303-708-1858,true,true,-104.8751,39.56962,2019-03-18 14:14:43 UTC,2019-03-28 12:52:17 UTC,ChIJs_lgp76FbIcRSUvXfZXH8jU,https://stores.golfgalaxy.com/co/englewood/3228/?seo=localpack,"9657 E County Line Rd, Englewood, CO 80112, USA",Golf Galaxy,contact@golfgalaxy.com,false
365,Golf Galaxy Westminster,9440 Sheridan Blvd,"Westminster, CO 80031-6305",Westminster,CO,UNITED STATES,80031-6305,303-317-5224,true,true,-105.0513,39.86854,2019-03-18 14:14:43 UTC,2019-03-28 12:52:17 UTC,ChIJvat6SsCJa4cRNsRErnXslA8,https://stores.golfgalaxy.com/co/westminster/3234/?seo=localpack,"9440 Sheridan Boulevard, Westminster, CO 80031, USA",Golf Galaxy,contact@golfgalaxy.com,false
366,Collindale Pro Shop,1441 E Horsetooth Rd,"Fort Collins, CO 80525",Fort Collins,CO,UNITED STATES,80525,970-221-6651,true,true,-105.0509,40.53753,2019-03-18 14:14:43 UTC,2019-03-28 12:52:19 UTC,ChIJN602ZlxLaYcRmEIt3RT7gbQ,http://www.collindalegolfacademy.com/,"1441 E Horsetooth Rd, Fort Collins, CO 80525, USA",Collindale Golf Academy & Club Fitting Center,info@collindalegolfacademy.com,false
368,Golf USA of Coralville,1830 N Coral St Ste 1,"Coralville, IA 52241-7608",Coralville,IA,UNITED STATES,52241-7608,319-625-2105 ,true,true,-91.607423,41.698414,2019-03-18 14:14:43 UTC,2019-03-28 12:52:30 UTC,ChIJRd-yu3FE5IcRWzsSci-Tzek,http://www.golfusacoralville.com/,"1830 N Coral St, Coralville, IA 52241, USA",Golf USA,not_found,false
369,Golf Discount,2993 Highway K,"O Fallon, MO 63368-7862",O Fallon,MO,UNITED STATES,63368-7862,636-980-2092,true,true,-90.724773,38.745053,2019-03-18 14:14:43 UTC,2019-03-28 12:52:49 UTC,ChIJXVdwN1rW3ocRPfxOktId_gw,http://www.golfdiscount-stl.com/,"2993 State Hwy K, O'Fallon, MO 63368, USA",Golf Discount of St. Louis - O'Fallon,not_found,false
370,PGA TOUR Superstore Minnetonka,12380 Wayzata Blvd,"Minnetonka, MN 55305-1919",Minnetonka,MN,UNITED STATES,55305-1919,763-489-5410,true,true,-93.4351,44.97231,2019-03-18 14:14:43 UTC,2019-03-28 12:52:49 UTC,ChIJnUdAKJFKs1IRo7Ch8U3nYfw,https://www.pgatoursuperstore.com/stores/minnetonka-minnesota/1205.html,"12380 Wayzata Blvd, Minnetonka, MN 55305, USA",PGA TOUR Superstore,contact@pgatoursuperstore.com,false
371,Golf Galaxy Saint Louis,11955 Manchester Rd,"Saint Louis, MO 63131-4502",Saint Louis,MO,UNITED STATES,63131-4502,314-822-2374,true,true,-90.4348,38.6025,2019-03-18 14:14:43 UTC,2019-03-28 12:52:50 UTC,ChIJ32y7r3nS2IcR8rqMfObZSco,https://stores.golfgalaxy.com/mo/saint-louis/3207/?seo=localpack,"11955 Manchester Rd, St. Louis, MO 63131, USA",Golf Galaxy,contact@golfgalaxy.com,false
372,Austads Golf Inc St Cloud,3701 W Division St Ste 102,"Saint Cloud, MN 56301-3301",Saint Cloud,MN,UNITED STATES,56301-3301,320-259-4653,true,true,-94.203437,45.553353,2019-03-18 14:14:43 UTC,2019-03-28 12:52:53 UTC,ChIJb9onugdftFIRC4dE6INAx4M,http://austads.com/,"3701 W Division St # 104, St Cloud, MN 56301, USA",Austad's Golf Saint Cloud,not_found,false
375,The Courses at Watters Creek,7201 Chase Oaks Blvd,"Plano, TX 75025-5902",Plano,TX,UNITED STATES,75025-5902,972-517-3688 ,true,true,-96.69282,33.07398,2019-03-18 14:14:43 UTC,2019-03-28 12:52:55 UTC,ChIJrwicZNkZTIYReCZZ8nXviVs,http://www.watterscreekgolf.com/,"7201 Chase Oaks Blvd, Plano, TX 75025, USA",The Courses at Watters Creek,info@watterscreekgolf.com,false
376,Golf Galaxy Grapevine,2100 W Northwest Hwy,"Grapevine, TX 76051-7808",Grapevine,TX,UNITED STATES,76051-7808,817-310-3596,true,true,-97.099939,32.943079,2019-03-18 14:14:43 UTC,2019-03-28 12:52:55 UTC,ChIJrbOsvsnUTYYR3zk1plv_qAg,https://stores.golfgalaxy.com/tx/grapevine/3108/?seo=localpack,"2100 W Northwest Hwy, Grapevine, TX 76051, USA",Golf Galaxy,contact@golfgalaxy.com,false
377,PGA TOUR Superstore Southlake,2241 E Southlake Blvd,"South Lake, TX 76092-6852",South Lake,TX,UNITED STATES,76092-6852,817-722-5190,true,true,-97.116239,32.940709,2019-03-18 14:14:43 UTC,2019-03-28 12:52:56 UTC,ChIJsUDUW-rUTYYRkdEBzWD-9HQ,https://www.pgatoursuperstore.com/stores/southlake-texas/0403.html,"2241 E Southlake Blvd, Southlake, TX 76092, USA",PGA TOUR Superstore,contact@pgatoursuperstore.com,false
381,Golf Galaxy Dallas-Arlington,1001 W Interstate 20,"Arlington, TX 76017-5855",Arlington,TX,UNITED STATES,76017-5855,817-557-5077,true,true,-97.12055,32.67835,2019-03-18 14:14:43 UTC,2019-03-28 12:52:57 UTC,ChIJfWmVwsNiToYRAGIh15k9hhQ,https://stores.golfgalaxy.com/tx/arlington/3221/?seo=localpack,"1001 W Interstate 20, Arlington, TX 76017, USA",Golf Galaxy,contact@golfgalaxy.com,false
382,Golf USA Texarkana,5035 W Park Blvd,"Texarkana, TX 75503-2594",Texarkana,TX,UNITED STATES,75503-2594,903-832-2698,true,true,-94.103964,33.453642,2019-03-18 14:14:43 UTC,2019-03-28 12:53:00 UTC,ChIJUwNhDIRBNIYRd4IHGLmLlqY,http://golfusa.com/,"5035 W Park Blvd, Texarkana, TX 75503, USA",Golf USA,not_found,false
383,The Golf Shack Inc,1631 N Bell School Rd,"Rockford, IL 61107-2876",Rockford,IL,UNITED STATES,61107-2876,815-397-3709,true,true,-88.969247,42.287897,2019-03-18 14:14:43 UTC,2019-03-28 12:53:16 UTC,ChIJn6QCJr25CIgRE-2uqI8yJcI,http://www.golfshack.com/,"1631 N Bell School Rd, Rockford, IL 61107, USA",Golf Shack,not_found,false
384,Chicago Bill's Golf,26 W 101 Lake,"Hanover Park, IL 60133",Hanover Park,IL,UNITED STATES,60133,630-540-9200,true,true,-88.145073,41.999472,2019-03-18 14:14:43 UTC,2019-03-28 12:53:19 UTC,ChIJz3gaaCyqD4gRa9VwWHm3Dqg,http://www.chicagobillsgolf.com/,"26W101 W Lake St, Hanover Park, IL 60133, USA",Chicago Bills Golf,info@chicagobillsgolf.com,false
385,Windyke Country Club,8535 Winchester Rd,"Memphis, TN 38125-8228",Memphis,TN,UNITED STATES,38125-8228,901-754-7273,true,true,-89.777241,35.042189,2019-03-18 14:14:43 UTC,2019-03-28 12:53:20 UTC,ChIJH2RzrwGaf4gRpKCYXJmF-tA,http://www.windyke.com/,"8535 Winchester Rd, Memphis, TN 38125, USA",Windyke Country Club,contact@windyke.com,false
387,Golf Galaxy Brookfield,16130 W Bluemound Rd,"Brookfield, WI 53005-6009",Brookfield,WI,UNITED STATES,53005-6009,262-641-7607,true,true,-88.11339,43.03695,2019-03-18 14:14:44 UTC,2019-03-28 12:53:20 UTC,ChIJ4Xh7P1wGBYgRrzSPaMyYvlI,https://stores.golfgalaxy.com/wi/brookfield/3224/?seo=localpack,"16130 W Bluemound Rd, Brookfield, WI 53005, USA",Golf Galaxy,contact@golfgalaxy.com,false
388,Lakeshore Country Club,1255 Sheridan Rd,"Glencoe, IL 60022-1253",Glencoe,IL,UNITED STATES,60022-1253,847-835-3051 ,true,true,-87.76068,42.15164,2019-03-18 14:14:44 UTC,2019-03-28 12:53:37 UTC,ChIJpZ_WZO_DD4gR2nHYnpvQD1A,http://www.lakeshorecc.com/,"1255 Sheridan Rd, Glencoe, IL 60022, USA",Lake Shore Country Club,not_found,false
390,Green Bay Country Club,2400 Klondike Rd,"Green Bay, WI 54311-6936",Green Bay,WI,UNITED STATES,54311-6936,920-339-4653 ,true,true,-87.96133,44.44947,2019-03-18 14:14:44 UTC,2019-03-28 12:53:42 UTC,ChIJPXLXIIzjAogR8NStCXXqkuY,http://www.greenbaycountryclub.com/,"2400 Klondike Rd, Green Bay, WI 54311, USA","Green Bay Country Club, Inc.",admin@greenbaycountryclub.com,false
391,The Tee Box,1500 Broadwater Ave Ste 2,"Billings, MT 59102-5041",Billings,MT,UNITED STATES,59102-5041,406-256-8269,true,true,-108.5541,45.77661,2019-03-18 14:14:44 UTC,2019-03-28 12:53:45 UTC,ChIJ4QWxf9ZiSFMRGZFZj1qkbpU,http://theteeboxmt.com/,"1500 Broadwater Ave #2, Billings, MT 59102, USA",The Tee Box,not_found,false
392,Barton Creek Fitting Studio,8511 Carranzo Dr,"Austin, TX 78735",Austin,TX,UNITED STATES,78735,512-844-6967,true,true,-97.877,30.27153,2019-03-18 14:14:44 UTC,2019-03-28 12:53:48 UTC,ChIJr1cUcPRJW4YRevJsW3W0zPQ,http://bartoncreekfittingstudio.com/,"8511 Carranzo Dr, Austin, TX 78735, USA",Barton Creek Fitting Studio,not_found,false
393,PGA TOUR Superstore Indianapolis,3928 E 82nd St,"Indianapolis, IN 46240",Indianapolis,IN,UNITED STATES,46240,317-558-5010,true,true,-86.09917,39.90977,2019-03-18 14:14:44 UTC,2019-03-28 12:53:49 UTC,ChIJMQz1I6pTa4gR42feSfCOmu8,https://www.pgatoursuperstore.com/stores/indianapolis-indiana/1214.html,"3928 E 82nd St, Indianapolis, IN 46240, USA",PGA TOUR Superstore,contact@pgatoursuperstore.com,false
394,Golf Galaxy - Castleton,5625 E 86th St,"Castleton, IN 46250-5572",Castleton,IN,UNITED STATES,46250-5572,317-567-2692,true,true,-86.071305,39.906969,2019-03-18 14:14:44 UTC,2019-03-28 12:53:50 UTC,ChIJqcOxrTdNa4gRB3mjQWftQCk,https://stores.golfgalaxy.com/in/castleton/3117/?seo=localpack,"5625 E 86th St, Castleton, IN 46250, USA",Golf Galaxy,contact@golfgalaxy.com,false
395,Golf Galaxy The Woodlands,25415 Ih 45 N Ste B,"Spring, TX 77380-3648",Spring,TX,UNITED STATES,77380-3648,281-292-2288,true,true,-97.80624,30.11249,2019-03-18 14:14:44 UTC,2019-03-28 12:53:50 UTC,ChIJt3I6ZNnKQIYRFVH471kut6Y,https://stores.golfgalaxy.com/tx/spring/3229/?seo=localpack,"25415 N, I-45 Suite B, Spring, TX 77380, USA",Golf Galaxy,contact@golfgalaxy.com,false
396,PGA TOUR Superstore Woodlands,19075 Interstate 45 S,"Shenandoah, TX 77385-8704",Shenandoah,TX,UNITED STATES,77385-8704,832-616-4400,true,true,-95.45108,30.18124,2019-03-18 14:14:44 UTC,2019-03-28 12:53:51 UTC,ChIJq3Wub-I2R4YRkHDcAxNwi74,https://www.pgatoursuperstore.com/stores/woodlands-shenandoah-texas/1206.html,"Portofino Shopping Center, 19075 Interstate 45 N #105, Shenandoah, TX 77385, USA",PGA TOUR Superstore,contact@pgatoursuperstore.com,false
397,Maple Hill Golf,5555 Ivanrest Ave Sw,"Wyoming, MI 49418",Wyoming,MI,UNITED STATES,49418,616-538-0290,true,true,-85.74291,42.86377,2019-03-18 14:14:44 UTC,2019-03-28 12:53:54 UTC,ChIJabWzCbWwGYgRVpK3AvlW03o,https://maplehillgolf.com/,"5555 Ivanrest Ave SW, Grandville, MI 49418, USA",Maple Hill Golf,not_found,false
398,Golf Galaxy San Antonio,1211 N Loop 1604 W,"San Antonio, TX 78258-4596",San Antonio,TX,UNITED STATES,78258-4596,210-764-1015,true,true,-98.51156,29.60902,2019-03-18 14:14:44 UTC,2019-03-28 12:53:54 UTC,ChIJQzK6ZSBiXIYRfgxbCKcvehM,https://stores.golfgalaxy.com/tx/san-antonio/3222/?seo=localpack,"1211 N Loop 1604 W, San Antonio, TX 78258, USA",Golf Galaxy,contact@golfgalaxy.com,false
399,PGA TOUR Superstore Sandy,10355 S State St,"Sandy, UT 84070-4114",Sandy,UT,UNITED STATES,84070-4114,801-308-5760,true,true,-111.8889,40.56309,2019-03-18 14:14:44 UTC,2019-03-28 12:53:55 UTC,ChIJz7LW78aHUocRjLcfSczgauc,https://www.pgatoursuperstore.com/stores/sandy-utah/1204.html,"10355 State St, Sandy, UT 84070, USA",PGA TOUR Superstore,contact@pgatoursuperstore.com,false
400,PGA TOUR Superstore Katy,24743 Katy Fwy,"Katy, TX 77494",Katy,TX,UNITED STATES,77494,346-307-8700,true,true,-95.80338,29.78568,2019-03-18 14:14:44 UTC,2019-03-28 12:53:56 UTC,ChIJm9b0ypYmQYYRTgyPsJlGarc,https://www.pgatoursuperstore.com/stores/katy-texas/1212.html,"24743 Katy Fwy, Katy, TX 77494, USA",PGA TOUR Superstore,contact@pgatoursuperstore.com,false
401,Lakeside Country Club Pro Shop,100 Wilcrest Dr,"Houston, TX 77042-1002",Houston,TX,UNITED STATES,77042-1002,281-497-2228,true,true,-95.578161,29.761728,2019-03-18 14:14:44 UTC,2019-03-28 12:53:57 UTC,ChIJBV8YU1_bQIYRsn4HB2iXuxc,http://www.lakesidecc.com/,"100 Wilcrest Dr, Houston, TX 77042, USA",Lakeside Country Club,contact@lakesidecc.com,false
402,Houston Country Club,1 Potomac Dr,"Houston, TX 77057-1207",Houston,TX,UNITED STATES,77057-1207,713-465-8381,true,true,-95.489183,29.759717,2019-03-18 14:14:44 UTC,2019-03-28 12:53:58 UTC,ChIJAwxWm_fDQIYR7kk4L2MFiLc,http://www.houstoncc.com/,"1 Potomac Dr, Houston, TX 77057, USA",Houston Country Club,contact@houstoncc.com,false
403,5u Golf Center,5945 College St,"Beaumont, TX 77707",Beaumont,TX,UNITED STATES,77707,409-880-5589,true,true,-94.1599,30.06609,2019-03-18 14:14:44 UTC,2019-03-28 12:54:07 UTC,ChIJ9bezvZnMPoYRBxUYIzhw0ig,http://www.5undergolf.com/contact/,"5945 College St, Beaumont, TX 77707, USA",5 Under Golf Center,not_found,false
405,Golf Emporium,10831 14 Mile Rd Ne,"Rockford, MI 49341-8663",Rockford,MI,UNITED STATES,49341-8663,616-754-2280,true,true,-85.40128,43.17701,2019-03-18 14:14:44 UTC,2019-03-28 12:54:11 UTC,ChIJVVKJDd7wGIgRE_uiS2FPDKc,https://thegolfemporium.com/,"10831 14 Mile Rd NE, Rockford, MI 49341, USA",Golf Emporium,not_found,false
406,Professionals Golf Shop,401 Lime Quarry Rd,"Madison, AL 35758",Madison,AL,UNITED STATES,35758,256-772-5840,true,true,-86.736493,34.678418,2019-03-18 14:14:44 UTC,2019-03-28 12:54:19 UTC,ChIJxWKIKYRvYogRwafk9FH5dd0,http://www.madisongolfcenter.com/,"401 Lime Quarry Rd, Madison, AL 35758, USA",Madison Golf Center,not_found,false
407,Clor's Outpost Inc,3435 Pioneer Rd,"Osseo, MI 49266-9630",Osseo,MI,UNITED STATES,49266-9630,517-523-2622 ,true,true,-84.558495,41.876662,2019-03-18 14:14:44 UTC,2019-03-28 12:54:38 UTC,ChIJcZxYjHsMPYgRBEYPaUkT3vk,http://www.outpostgolf.com/,"3435 Pioneer Rd, Osseo, MI 49266, USA",Clor's Outpost Inc,not_found,false
408,Golf Galaxy - Tri County,11825 Commons Dr,"Cincinnati, OH 45246-2553",Cincinnati,OH,UNITED STATES,45246-2553,513-671-7111,true,true,-84.458458,39.291747,2019-03-18 14:14:44 UTC,2019-03-28 12:54:39 UTC,ChIJ7ewcPRVOQIgRG6t5PIIoQLk,https://stores.golfgalaxy.com/oh/springdale/3011/?seo=localpack,"11825 Commons Dr, Springdale, OH 45246, USA",Golf Galaxy,contact@golfgalaxy.com,false
409,Golfballs.com,126 Arnould Blvd,"Lafayette, LA 70506-6214",Lafayette,LA,UNITED STATES,70506-6214,337-210-4653,true,true,-92.053667,30.203574,2019-03-18 14:14:44 UTC,2019-03-28 12:54:40 UTC,ChIJTWBXrTucJIYRY8jdK9CShxY,http://www.golfballs.com/,"126 Arnould Blvd, Lafayette, LA 70506, USA",Golfballs.com Retail Center,contact@golfballs.com,false
410,Your Golf Superstore,1010 Kicker Rd Unit D,"Tuscaloosa, AL 35404",Tuscaloosa,AL,UNITED STATES,35404,205-343-6789,true,true,-87.526194,33.188661,2019-03-18 14:14:44 UTC,2019-03-28 12:54:43 UTC,ChIJxYr_3cypiIgRc6IwF3zExFA,http://yourgolfsuperstore.com/,"2330 McFarland Blvd E, Tuscaloosa, AL 35404, USA",Your Golf Superstore,not_found,false
411,The Golf Shop,15211 Us 6,"Napoleon, OH 43545",Napoleon,OH,UNITED STATES,43545,419-592-3911 ,true,true,-84.125224,41.392273,2019-03-18 14:14:44 UTC,2019-03-28 12:54:47 UTC,ChIJI8dUa-82PIgRyDs5XicmYMg,http://thegolfshopnow.com/,"15211 US-6, Napoleon, OH 43545, USA",golf shop,not_found,false
412,PGA TOUR Superstore Birmingham,165-a Inverness Plaza,"Birmingham, AL 35242",Birmingham,AL,UNITED STATES,35242,205-440-4200,true,true,-86.69724,33.41928,2019-03-18 14:14:44 UTC,2019-03-28 12:54:48 UTC,ChIJM8mYNkoWiYgRuCHJ3iG-WC4,https://www.pgatoursuperstore.com/stores/birmingham-alabama/1202.html,"165 Inverness Plaza A, Birmingham, AL 35242, USA",PGA TOUR Superstore,contact@pgatoursuperstore.com,false
414,Golf Galaxy Tuttle Crossing,5740 Britton Pkwy,"Dublin, OH 43016-1212",Dublin,OH,UNITED STATES,43016-1212,614-717-9001,true,true,-83.139893,40.074178,2019-03-18 14:14:44 UTC,2019-03-28 12:54:48 UTC,ChIJp-kZlg2TOIgRwd_sr-FwzoU,https://stores.golfgalaxy.com/oh/dublin/3009/?seo=localpack,"5740 Britton Pkwy, Dublin, OH 43016, USA",Golf Galaxy,contact@golfgalaxy.com,false
415,Par Golf of Columbus,5863 Sawmill Rd,"Dublin, OH 43017-2532",Dublin,OH,UNITED STATES,43017-2532,614-792-3553,true,true,-83.092089,40.08698,2019-03-18 14:14:44 UTC,2019-03-28 12:54:52 UTC,ChIJt6gij7ySOIgRQdha-o4lSFQ,http://www.pargolfdiscount.com/,"5863 Sawmill Rd, Dublin, OH 43017, USA",Par Golf Discount,info@pargolfdiscount.com,false
416,The Lakes Golf and Country Club,6740 Worthington Rd,"Westerville, OH 43082-9491",Westerville,OH,UNITED STATES,43082-9491,614-882-2582,true,true,-82.946123,40.167767,2019-03-18 14:14:44 UTC,2019-03-28 12:54:55 UTC,ChIJ9XjiSdL1OIgRzP8bwRH7g7Q,https://lakesclub.com/,"6740 Worthington Rd, Westerville, OH 43082, USA",Lakes Golf & Country Club,not_found,false
417,Golf Galaxy Columbus ,4250 Easton Gateway Dr,"Columbus, OH 43219-1543",Columbus,OH,UNITED STATES,43219-1543,614-472-4711,true,true,-82.915297,40.050092,2019-03-18 14:14:44 UTC,2019-03-28 12:54:56 UTC,ChIJvVNzoH2KOIgR0cEt3nCSDTI,https://stores.golfgalaxy.com/oh/columbus/3118/?seo=localpack,"4250 Easton Gateway Dr, Columbus, OH 43219, USA",Golf Galaxy,contact@golfgalaxy.com,false
418,Thunderbird Hills Golf Club,1609 Mudbrook Rd,"Huron, OH 44839-8905",Huron,OH,UNITED STATES,44839-8905,419-433-2945,true,true,-82.565239,41.37555,2019-03-18 14:14:44 UTC,2019-03-28 12:54:59 UTC,ChIJY3t1BhxAOogR3Yl9UJfY77g,http://thunderbirdhills.com/,"1316 Mudbrook Rd, Huron, OH 44839, USA",Thunderbird Hills Golf Course / Bar North Bistro,not_found,false
420,PGA TOUR Superstore North Scottsdale ,7000 E Mayo Blvd Bldg 14,"Phoenix, AZ 85054-6158",Phoenix,AZ,UNITED STATES,85054-6158,602-777-6380 ,true,true,-111.929248,33.657743,2019-03-18 14:14:44 UTC,2019-03-28 12:54:59 UTC,ChIJL5bBD752K4cRT3IWAITa9yo,https://www.pgatoursuperstore.com/stores/north-scottsdale-phoenix-arizona/0503.html,"7000 E Mayo Blvd, Phoenix, AZ 85054, USA",PGA TOUR Superstore,contact@pgatoursuperstore.com,false
421,Golf Stop,6155 E Broadway Blvd,"Tucson, AZ 85711-4028",Tucson,AZ,UNITED STATES,85711-4028,520-790-0941 ,true,true,-110.8644,32.22165,2019-03-18 14:14:44 UTC,2019-03-28 12:55:03 UTC,ChIJ8Y5Z86Fv1oYRSylwTBrlHAA,https://www.golfstoptucson.com/,"6155 E Broadway Blvd, Tucson, AZ 85711, USA",Golf Stop,not_found,false
422,PGA TOUR Superstore Tucson,4215 N Oracle Rd,"Tucson, AZ 85705-1631",Tucson,AZ,UNITED STATES,85705-1631,520-448-5840,true,true,-110.979847,32.283345,2019-03-18 14:14:44 UTC,2019-03-28 12:55:03 UTC,ChIJZ2O4gutz1oYRDmDOwKPDN-Q,https://www.pgatoursuperstore.com/stores/tuscon-arizona/1203.html,"4215 N Oracle Rd, Tucson, AZ 85705, USA",PGA TOUR Superstore,contact@pgatoursuperstore.com,false
423,PGA TOUR Superstore Glendale,7360 W Bell Rd,"Glendale, AZ 85308-8526",Glendale,AZ,UNITED STATES,85308-8526,480-482-3001 ,true,true,-112.2177,33.63961,2019-03-18 14:14:44 UTC,2019-03-28 12:55:04 UTC,ChIJwXsHdzdoK4cR3z5gtd1NKSM,https://www.pgatoursuperstore.com/stores/glendale-arizona/1207.html,"7360 W Bell Rd, Glendale, AZ 85308, USA",PGA TOUR Superstore,contact@pgatoursuperstore.com,false
425,Georgia Golf Center,345 Cox Rd,"Roswell, GA 30075-1007",Roswell,GA,UNITED STATES,30075-1007,770-992-4233,true,true,-84.371825,34.095372,2019-03-18 14:14:44 UTC,2019-03-28 12:55:08 UTC,ChIJw3VouOtz9YgR2cbVSZwK9ro,http://www.georgiagolfcenter.com/,"345 Cox Rd, Roswell, GA 30075, USA",Georgia Golf Center,not_found,false
426,Golf Galaxy - North Olmstead,25999 Lorain Rd,"North Olmsted, OH 44070-2737",North Olmsted,OH,UNITED STATES,44070-2737,440-979-9265,true,true,-81.908655,41.420159,2019-03-18 14:14:44 UTC,2019-03-28 12:55:09 UTC,ChIJoZWNbQqTMIgRWaF39Xb5Ebs,https://stores.golfgalaxy.com/oh/north-olmsted/3015/?seo=localpack,"25999 Lorain Rd, North Olmsted, OH 44070, USA",Golf Galaxy,contact@golfgalaxy.com,false
427,Nevada Bobs Golf,668 Hendersonville Rd,"Asheville, NC 28803-2869",Asheville,NC,UNITED STATES,28803-2869,828-274-5374 ,true,true,-82.534086,35.547488,2019-03-18 14:14:44 UTC,2019-03-28 12:55:12 UTC,ChIJiWegAeTyWYgR5dJ_30jkmzA,https://golf-asheville.com/,"668 Hendersonville Rd, Asheville, NC 28803, USA",Nevada Bob's Golf,not_found,false
428,Golf Galaxy Henderson ,561 N Stephanie St,"Henderson, NV 89014-6613",Henderson,NV,UNITED STATES,89014-6613,702-436-1362,true,true,-115.046291,36.06217,2019-03-18 14:14:44 UTC,2019-03-28 12:55:12 UTC,ChIJwS56K_bQyIARsX13gpUTniM,https://stores.golfgalaxy.com/nv/henderson/3110/?seo=localpack,"561 N Stephanie St, Henderson, NV 89014, USA",Golf Galaxy,contact@golfgalaxy.com,false
430,PGA TOUR Superstore Summerlin,#140 2315 Summa Drive,"Las Vegas, NV 89135",Las Vegas,NV,UNITED STATES,89135,725-867-6700,true,true,-115.3355,36.14631,2019-03-18 14:14:44 UTC,2019-03-28 12:55:13 UTC,ChIJh7VLFf--yIARNcsZK60EYz8,https://www.pgatoursuperstore.com/stores/summerlin-nevada/1210.html,"2315 Summa Dr #140, Las Vegas, NV 89135, USA",PGA TOUR Superstore,contact@pgatoursuperstore.com,false
431,Haas Family Golf Center,8000 Pelham Rd,"Greenville, SC 29615",Greenville,SC,UNITED STATES,29615,864-288-0001,true,true,-82.23553,34.85185,2019-03-18 14:14:44 UTC,2019-03-28 12:55:20 UTC,ChIJvf-mtsApWIgRj0r-j0wHSmQ,http://www.haasfamilygolf.com/,"8000 Pelham Rd, Greenville, SC 29615, USA",Haas Family Golf,not_found,false
433,Sunset Country Club,2730 S Main St,"Moultrie, GA 31768-6550",Moultrie,GA,UNITED STATES,31768-6550,229-890-1561,true,true,-83.788839,31.179941,2019-03-18 14:14:44 UTC,2019-03-28 12:55:40 UTC,ChIJEbXylkDo7YgRNzqdjZICr80,http://www.pogproam.com/,"2730 S Main St, Moultrie, GA 31768, USA",Sunset Country Club,not_found,false
434,Golf Galaxy - Charlotte,10844 Providence Rd,"Charlotte, NC 28277-3596",Charlotte,NC,UNITED STATES,28277-3596,704-847-2141,true,true,-80.773225,35.061354,2019-03-18 14:14:44 UTC,2019-03-28 12:55:41 UTC,ChIJxeyYF7YnVIgRgMdsFbX4fBc,https://stores.golfgalaxy.com/nc/charlotte/3039/?seo=localpack,"10844 Providence Rd, Charlotte, NC 28277, USA",Golf Galaxy,contact@golfgalaxy.com,false
435,Golf Galaxy Cary (Parkside Town Commons),1030 Parkside Main St,"Cary, NC 27519-6949",Cary,NC,UNITED STATES,27519-6949,919-627-9742,true,true,-78.894874,35.801959,2019-03-18 14:14:44 UTC,2019-03-28 12:55:41 UTC,ChIJiU1UtfmNrIkREGdsXhWkjNA,https://stores.golfgalaxy.com/nc/cary/3113/?seo=localpack,"1030 Parkside Main St, Cary, NC 27519, USA",Golf Galaxy,contact@golfgalaxy.com,false
436,Big Oak Driving Range and Par 3,441 N Washington St,"East Rochester, NY 14445",East Rochester,NY,UNITED STATES,14445,585-586-0614,true,true,-77.49235,43.113268,2019-03-18 14:14:44 UTC,2019-03-28 12:56:00 UTC,ChIJZdsnLWjL1okR9fRXNvdGT0A,http://www.bigoak.com/,"441 N Washington St, East Rochester, NY 14445, USA",Big Oak Driving Range & Golf Shop Inc,not_found,false
437,North Ridge Country Club,6612 Falls of Neuse Rd,"Raleigh, NC 27615-6815",Raleigh,NC,UNITED STATES,27615-6815,919-846-9667 ,true,true,-78.62067,35.87437,2019-03-18 14:14:44 UTC,2019-03-28 12:56:03 UTC,ChIJbXKoYDJYrIkRhDZ2u9UPfyo,http://www.northridgecountryclub.org/,"6612 Falls of Neuse Rd, Raleigh, NC 27615, USA",North Ridge Country Club,not_found,false
438,Golf Headquarters,4112 Kietzke Ln,"Reno, NV 89502-5051",Reno,NV,UNITED STATES,89502-5051,775-826-2245,true,true,-119.78873,39.484423,2019-03-18 14:14:44 UTC,2019-03-28 12:56:08 UTC,ChIJRaNS4XdAmYARaEj_jq-1BFY,https://www.golfhqreno.com/,"4112 Kietzke Ln, Reno, NV 89502, USA",Golf Headquarters,info@golfhqreno.com,false
439,The Fitting Studio at Westfields,13940 Balmoral Greens Ave,"Clifton, VA 20124-2817",Clifton,VA,UNITED STATES,20124-2817,703-988-0187 ,true,true,-77.424932,38.795254,2019-03-18 14:14:44 UTC,2019-03-28 12:56:21 UTC,ChIJx8M4BihbtokR4AglVNk-RBk,http://www.golffittingstudios.com/,"13940 Balmoral Greens Ave, Clifton, VA 20124, USA",Golf Fitting Studio At Westfields,not_found,false
440,Golf Galaxy Fairfax ,12975 Fair Lakes Pkwy,"Fairfax, VA 22033",Fairfax,VA,UNITED STATES,22033,703-563-3960,true,true,-77.3936,38.858288,2019-03-18 14:14:44 UTC,2019-03-28 12:56:22 UTC,ChIJf7-tjI1FtokRA5yiBcuf-xc,https://stores.golfgalaxy.com/va/fairfax/3089/?seo=localpack,"12975 Fair Lakes Shopping Center, Fairfax, VA 22033, USA",Golf Galaxy,contact@golfgalaxy.com,false
441,Golf Galaxy Richmond,2000 Old Brick Rd,"Glen Allen, VA 23060-5834",Glen Allen,VA,UNITED STATES,23060-5834,804-360-2500,true,true,-77.59619,37.64734,2019-03-18 14:14:44 UTC,2019-03-28 12:56:23 UTC,ChIJqeJ3KZBqsYkRgAa1SSG_yYQ,https://stores.golfgalaxy.com/va/glen-allen/3227/?seo=localpack,"2000 Old Brick Rd, Glen Allen, VA 23060, USA",Golf Galaxy,contact@golfgalaxy.com,false
446,The Golf Exchange Inc,1860 W Carson St Ste 104,"Torrance, CA 90501-2849",Torrance,CA,UNITED STATES,90501-2849,310-533-1400,true,true,-118.312698,33.830992,2019-03-18 14:14:44 UTC,2019-03-28 12:56:54 UTC,ChIJ1Q4SRLtK3YAR3vL7Nxuzsn0,https://the-golf-exchange-inc.business.site/,"1860 W Carson St #104, Torrance, CA 90501, USA","The Golf Exchange, Inc.",not_found,false
447,Plaza Golf Shop,23715 Crenshaw Blvd,"Torrance, CA 90505-5206",Torrance,CA,UNITED STATES,90505-5206,310-534-3346,true,true,-118.328403,33.808699,2019-03-18 14:14:44 UTC,2019-03-28 12:57:00 UTC,ChIJqd1qLPJK3YARMM8FLyh1Cng,http://plazagolfonline.com/,"23715 Crenshaw Blvd, Torrance, CA 90505, USA",Plaza Golf,not_found,false
448,Golf Galaxy Towson ,803 Goucher Blvd Ste 104,"Towson, MD 21286-5679",Towson,MD,UNITED STATES,21286-5679,443-279-3733,true,true,-76.584108,39.397661,2019-03-18 14:14:44 UTC,2019-03-28 12:57:02 UTC,ChIJ37dyWAUPyIkRu-UGX8RG7dQ,https://stores.golfgalaxy.com/md/towson/3090/?seo=localpack,"803 Goucher Blvd, Towson, MD 21286, USA",Golf Galaxy,contact@golfgalaxy.com,false
449,Pro Golf of Wilmington,323 Eastwood Rd Ste C,"Wilmington, NC 28403-1738",Wilmington,NC,UNITED STATES,28403-1738,910-794-8223 ,true,true,-77.85975,34.24363,2019-03-18 14:14:44 UTC,2019-03-28 12:57:05 UTC,ChIJ-TXFgMf0qYkRBj5JAhEu6mE,http://progolfwilmington.com/,"323 Eastwood Rd # C, Wilmington, NC 28403, USA",Pro Golf of Wilmington,not_found,false
452,Golf Galaxy - Christiana,1295 New Churchmans Rd,"Newark, DE 19713",Newark,DE,UNITED STATES,19713,302-338-9005,true,true,-75.661588,39.692118,2019-03-18 14:14:44 UTC,2019-03-28 12:57:06 UTC,ChIJUY8ozBwBx4kR9qt6MebmJ2A,https://stores.golfgalaxy.com/de/newark/3036/?seo=localpack,"1295 Churchmans Rd, Newark, DE 19713, USA",Golf Galaxy,contact@golfgalaxy.com,false
453,Golf Galaxy Lutz,17649 N Dale Mabry Hwy,"Lutz, FL 33548-4535",Lutz,FL,UNITED STATES,33548-4535,813-264-1241,true,true,-82.50083,28.12566,2019-03-18 14:14:44 UTC,2019-03-28 12:57:07 UTC,ChIJA3I61Ra_wogRI4pDb3XT0rE,https://stores.golfgalaxy.com/fl/lutz/3211/?seo=localpack,"17649 Dale Mabry Hwy N, Lutz, FL 33548, USA",Golf Galaxy,contact@golfgalaxy.com,false
454,Golf Galaxy - Devon,380 W Swedesford Rd,"Berwyn, PA 19312-1165",Berwyn,PA,UNITED STATES,19312-1165,484-952-0001,true,true,-75.445102,40.069342,2019-03-18 14:14:44 UTC,2019-03-28 12:57:07 UTC,ChIJf6wDknCTxokRzVKI9u2ns8g,https://stores.golfgalaxy.com/pa/berwyn/3033/?seo=localpack,"380 W Swedesford Rd, Berwyn, PA 19312, USA",Golf Galaxy,contact@golfgalaxy.com,false
456,PGA TOUR Superstore Altamonte,375 E Altamonte Dr Ste 1500,"Altamonte Springs, FL 32701-4400",Altamonte Springs,FL,UNITED STATES,32701-4400,407-961-5999,true,true,-81.38,28.66507,2019-03-18 14:14:44 UTC,2019-03-28 12:57:08 UTC,ChIJNS5Swpxx54gRlpuBCOu9A0U,https://www.pgatoursuperstore.com/stores/altamonte-florida/1211.html,"375 E Altamonte Dr #1500, Altamonte Springs, FL 32701, USA",PGA TOUR Superstore,contact@pgatoursuperstore.com,false
457,PGA TOUR Superstore Orlando,7603 Turkey Lake Rd,"Orlando, FL 32819-5222",Orlando,FL,UNITED STATES,32819-5222,407-581-7540,true,true,-81.476548,28.454382,2019-03-18 14:14:44 UTC,2019-03-28 12:57:08 UTC,ChIJT8PzMQF_54gRTmP2mU7d6Rk,https://www.pgatoursuperstore.com/stores/orlando-florida/0203.html,"7603 Turkey Lake Rd, Orlando, FL 32819, USA",PGA TOUR Superstore,contact@pgatoursuperstore.com,false
458,Golf Galaxy Mt Laurel ,56 Centerton Rd Centertown Square,"Mount Laurel, NJ 08054-6102",Mount Laurel,NJ,UNITED STATES,08054-6102,856-793-0557,true,true,-74.911856,39.971328,2019-03-18 14:14:44 UTC,2019-03-28 12:57:09 UTC,ChIJVVVVVaU1wYkRlmXcTRghCbI,https://stores.golfgalaxy.com/nj/mount-laurel/3038/?seo=localpack,"56 Centerton Rd, Mt Laurel, NJ 08054, USA",Golf Galaxy,contact@golfgalaxy.com,false
459,Golf Galaxy Sarasota,143 N Cattlemen Rd,"Sarasota, FL 34243-4700",Sarasota,FL,UNITED STATES,34243-4700,941-351-7945,true,true,-82.45799,27.38346,2019-03-18 14:14:44 UTC,2019-03-28 12:57:09 UTC,ChIJ40MxI904w4gRY659KSgZChc,https://stores.golfgalaxy.com/fl/sarasota/3203/?seo=localpack,"143 N Cattlemen Rd, Sarasota, FL 34243, USA",Golf Galaxy,contact@golfgalaxy.com,false
460,Raritan Golf Range,101 Orlando Dr,"Raritan, NJ 08869-2125",Raritan,NJ,UNITED STATES,08869-2125,732-356-9844,true,true,-74.626888,40.565725,2019-03-18 14:14:44 UTC,2019-03-28 12:57:16 UTC,ChIJDTvgn9Lqw4kRhzkuqyKB2uU,http://www.willisathletics.com/,"101 Orlando Dr, Raritan, NJ 08869, USA",Raritan Golf Range,not_found,false
461,San Jose Golf Course,1560 Oakland Rd,"San Jose, CA 95131-2430",San Jose,CA,UNITED STATES,95131-2430,408-441-4653,true,true,-121.889403,37.377424,2019-03-18 14:14:44 UTC,2019-03-28 12:57:18 UTC,ChIJU0R5Im3Mj4ARYFGfYgCREsQ,http://www.sjmuni.com/,"1560 Oakland Rd, San Jose, CA 95131, USA",San Jose Municipal Golf Course,info@sjmuni.com,false
462,Golf Galaxy San Jose,4070 Stevens Creek Blvd,"San Jose, CA 95129-1334",San Jose,CA,UNITED STATES,95129-1334,408-615-7000,true,true,-121.973193,37.321627,2019-03-18 14:14:44 UTC,2019-03-28 12:57:18 UTC,ChIJv2SE-JLKj4ARla2ReI4JSaM,https://stores.golfgalaxy.com/ca/san-jose/3202/?seo=localpack,"4070 Stevens Creek Blvd, San Jose, CA 95129, USA",Golf Galaxy,contact@golfgalaxy.com,false
463,Golf Galaxy East Hanover,301 State Route 10,"East Hanover, NJ 07936-2607",East Hanover,NJ,UNITED STATES,07936-2607,973-560-1501 ,true,true,-74.368201,40.804689,2019-03-18 14:14:44 UTC,2019-03-28 12:57:19 UTC,ChIJN4yjl_mow4kRn4ABE_Ft5KQ,https://stores.golfgalaxy.com/nj/east-hanover/3105/?seo=localpack,"301 NJ-10, East Hanover, NJ 07936, USA",Golf Galaxy,contact@golfgalaxy.com,false
464,Golf Galaxy Cascade,10263 Ne Cascades Pkwy,"Portland, OR 97220-6816",Portland,OR,UNITED STATES,97220-6816,503-287-0196,true,true,-122.5553,45.57299,2019-03-18 14:14:44 UTC,2019-03-28 12:57:20 UTC,ChIJm0JikwyklVQRtY7muIelez0,https://stores.golfgalaxy.com/or/portland/3205/?seo=localpack,"10263 NE Cascades Pkwy, Portland, OR 97220, USA",Golf Galaxy,contact@golfgalaxy.com,false
465,Cool Clubs,2401 E 3rd Ave,"Foster City, CA 94404",Foster City,CA,UNITED STATES,94404,650-212-4004,true,true,-122.283042,37.572126,2019-03-18 14:14:44 UTC,2019-03-28 12:57:23 UTC,ChIJpfffOryej4AR1y6rER7mvB8,http://coolclubs.com/sanfranciscoLocation.php,"2401 E 3rd Ave, Foster City, CA 94404, USA",Cool Clubs Golf,not_found,false
466,Golf Galaxy Paramus,240 Route 17 N Ste 6,"Paramus, NJ 07652",Paramus,NJ,UNITED STATES,07652,201-322-0016,true,true,-74.067526,40.934978,2019-03-18 14:14:44 UTC,2019-03-28 12:57:24 UTC,ChIJN_-U6_v6wokRYMhI_iaPuWA,https://stores.golfgalaxy.com/nj/paramus/3116/?seo=localpack,"240 NJ-17 N, Paramus, NJ 07652, USA",Golf Galaxy,contact@golfgalaxy.com,false
467,Jorgensen Golf,11700 Mukilteo Speedway Ste 407,"Mukilteo, WA 98275-5435",Mukilteo,WA,UNITED STATES,98275-5435,425-349-1347,true,true,-122.287262,47.891916,2019-03-18 14:14:44 UTC,2019-03-28 12:57:33 UTC,ChIJ9TrT5fcDkFQRSP9sA53iM5g,http://www.jorgensengolf.com/,"11700 Mukilteo Speedway # 407, Mukilteo, WA 98275, USA",Jorgensen Golf Inc,not_found,false
468,Westchester Country Club,99 Biltmore Ave,"Rye, NY 10580-1837",Rye,NY,UNITED STATES,10580-1837,914-798-5285,true,true,-73.794865,40.943263,2019-03-18 14:14:44 UTC,2019-03-28 12:57:40 UTC,ChIJWT2pG6WQwokR1riQEKvucls,http://www.wccclub.org/,"99 Biltmore Ave, Rye, NY 10580, USA",Westchester Country Club,not_found,false
469,De Mane Golf Inc,35 Chapel St,"Greenwich, CT 06831-5108",Greenwich,CT,UNITED STATES,06831-5108,203-531-9126,true,true,-73.65127,41.017484,2019-03-18 14:14:44 UTC,2019-03-28 12:57:43 UTC,ChIJg8Er1tWZwokRQBWWFyychTQ,http://www.demanegolf.com/,"35 Chapel St, Greenwich, CT 06831, USA",De Mane Golf,contact@demanegolf.com,false
470,Downtown Golf,125 Bedford St,"Stamford, CT 06901-1902",Stamford,CT,UNITED STATES,06901-1902,203-359-4653 ,true,true,-73.538174,41.056091,2019-03-18 14:14:44 UTC,2019-03-28 12:57:47 UTC,ChIJv5oLY-ihwokRhSoKMd-IP7Q,http://hititdowntown.com/,"125 Bedford St, Stamford, CT 06901, USA",Downtown Golf LLC,not_found,false
472,Golf Galaxy Fort Myers ,10091 Gulf Center Dr,"Fort Myers, FL 33913-8963",Fort Myers,FL,UNITED STATES,33913-8963,239-489-3659,true,true,-81.784973,26.488958,2019-03-18 14:14:44 UTC,2019-03-28 12:57:47 UTC,ChIJp-1SMg0U24gRvVxKpSDyrp8,https://stores.golfgalaxy.com/fl/fort-myers/3074/?seo=localpack,"10091 Gulf Center Dr, Fort Myers, FL 33913, USA",Golf Galaxy,contact@golfgalaxy.com,false
473,Brentwood Country Club Pro Shop,100 Pennsylvania Ave,"Brentwood, NY 11717-2355",Brentwood,NY,UNITED STATES,11717-2355,631-436-6060,true,true,-73.241699,40.786928,2019-03-18 14:14:44 UTC,2019-03-28 12:57:50 UTC,ChIJnbvcqbwx6IkRXyVB00Hc8Ew,https://lessings.com/corporate/venue_home.aspx?ref=39,"100 Pennsylvania Ave, Brentwood, NY 11717, USA",Brentwood Country Club,not_found,false
474,Race Brook Country Club,246 Derby Ave,"Orange, CT 06477-1361",Orange,CT,UNITED STATES,06477-1361,203-397-9806,true,true,-73.006361,41.298663,2019-03-18 14:14:44 UTC,2019-03-28 12:57:54 UTC,ChIJv18A9Eff54kRNsTaKvvfsxY,http://racebrook.org/,"246 Derby Ave, Orange, CT 06477, USA",Race Brook Country Club,not_found,false
475,David Di Ricos Golf Shop Inc,21 Myron St,"West Springfield, MA 01089-1405",West Springfield,MA,UNITED STATES,01089-1405,413-734-4444,true,true,-72.62701,42.132331,2019-03-18 14:14:44 UTC,2019-03-28 12:58:15 UTC,ChIJN7uWILjg5okRoTvzO16nzKE,http://www.davediricogolf.com/,"1050 Riverdale St, West Springfield, MA 01089, USA",Dave Dirico's Golf & Racquet,not_found,false
476,PGA Tour Superstore Boston,Rts 128/114,"Peabody, MA 01960",Peabody,MA,UNITED STATES,01960,"",true,true,-71.22342,42.38007,2019-03-18 14:14:44 UTC,2019-03-28 12:58:16 UTC,ChIJo2ADRAVj44kRftsDL2e_-Sc,https://www.pgatoursuperstore.com/stores/braintree-massachusetts/1220.html,"450 Grossman Dr, Braintree, MA 02184, USA",PGA TOUR Superstore,contact@pgatoursuperstore.com,false
477,Sandbaggers Driving Range,829 Washington St,"Pembroke, MA 02359-2316",Pembroke,MA,UNITED STATES,02359-2316,781-826-1234,true,true,-70.772249,42.062079,2019-03-18 14:14:44 UTC,2019-03-28 12:58:29 UTC,ChIJBaBGEjGi5IkRVSANlEXbsV4,http://www.sandbaggersgolfrange.com/,"829 Washington St, Pembroke, MA 02359, USA",Sandbaggers Range & Golf Shop,not_found,false
478,The Golf Warehouse,8910 E 34th St N,"Wichita, KS 67226",Wichita,KS,UNITED STATES,67226,316-838-5551,true,true,-97.233716,37.746326,2019-03-18 14:14:44 UTC,2019-03-28 12:58:30 UTC,ChIJXUVvAHD9uocRkBRUZXGa_AM,http://www.tgw.com/,"8851 E 34th St N, Wichita, KS 67226, USA",TGW - The Golf Warehouse,contact@tgw.com,false
480,Golf Galaxy Richfield,810 W 78th St,"Richfield, MN 55423",Richfield,MN,UNITED STATES,55423,612-435-0973,true,true,-93.28995,44.86313,2019-03-18 14:14:44 UTC,2019-03-28 12:58:31 UTC,ChIJdSohx8gl9ocRwNFXQiCASEg,https://stores.golfgalaxy.com/mn/richfield/3121/?seo=localpack,"810 W 78th St, Richfield, MN 55423, USA",Golf Galaxy,contact@golfgalaxy.com,false
482,Goal Line Inc,1430 Grand Ave,"Schofield, WI 54476-1160",Schofield,WI,UNITED STATES,54476-1160,715-355-1790,true,true,-89.612717,44.910884,2019-03-18 14:14:44 UTC,2019-03-28 12:58:39 UTC,ChIJqccUYxEkAIgRgW1tEmIPaCQ,https://www.goallinegolf.com/,"1430 Grand Ave, Schofield, WI 54476, USA",Goal Line Golf & Hockey,not_found,false
483,PGA TOUR Superstore Vernon Hills,295 Center Dr,"Vernon Hills, IL 60061",Vernon Hills,IL,UNITED STATES,60061,847-932-1300,true,true,-87.95508,42.24319,2019-03-18 14:14:44 UTC,2019-03-28 12:58:40 UTC,ChIJq-KPvvGXD4gR4YknFx-5LTY,https://www.pgatoursuperstore.com/stores/vernon-hills-illinois/1213.html,"295 Center Dr, Vernon Hills, IL 60061, USA",PGA TOUR Superstore,contact@pgatoursuperstore.com,false
484,Superstition Mountain Golf,8000 E Club Village Dr,"Gold Canyon, AZ 85118-1801",Gold Canyon,AZ,UNITED STATES,85118-1801,480-983-1411,true,true,-111.332197,33.365877,2019-03-18 14:14:44 UTC,2019-03-28 12:58:48 UTC,ChIJB_oNAPrJK4cRgGhLhDxbE8c,http://www.superstitionmountain.com/,"8000 E Club Village Dr, Gold Canyon, AZ 85118, USA",Superstition Mountain Golf,not_found,false
485,Wide World of Golf Inc,4921 N Division St,"Spokane, WA 99207-1407",Spokane,WA,UNITED STATES,99207-1407,509-489-4653,true,true,-117.411723,47.70317,2019-03-18 14:14:44 UTC,2019-03-28 12:58:54 UTC,ChIJkyRyKDgZnlQRJWHUdecM-kU,http://www.wwgolf.com/,"4921 N Division St, Spokane, WA 99207, USA",Wide World of Golf,admin@wwgolf.com,false
486,Chili Country Club,760 Scottsville Chili Rd,"Scottsville, NY 14546-9640",Scottsville,NY,UNITED STATES,14546-9640,585-889-9325 ,true,true,-77.771267,43.057133,2019-03-18 14:14:44 UTC,2019-03-28 12:58:55 UTC,ChIJIeX-WopR0YkRdrvDqDEirXc,http://www.chilicountryclub.com/,"760 Scottsville-Chili Rd, Scottsville, NY 14546, USA",Chili Country Club,contact@chilicountryclub.com,false
488,Golf Universe,6311 W Clearwater Ave,"Kennewick, WA 99336-1792",Kennewick,WA,UNITED STATES,99336-1792,509-735-2900 ,true,true,-119.161041,46.213805,2019-03-18 14:14:44 UTC,2019-03-28 12:59:02 UTC,ChIJr6eIjZV5mFQRSqTwIlaGNlY,http://golfuniversetc.com/,"6311 W Clearwater Ave, Kennewick, WA 99336, USA",Golf Universe,not_found,false
489,Golden Golf Mart,320 W Valley Blvd,"San Gabriel, CA 91776",San Gabriel,CA,UNITED STATES,91776,626-458-1465,true,true,-118.1046,34.07909,2019-03-18 14:14:44 UTC,2019-03-28 12:59:07 UTC,ChIJOYDnd7bawoARq-cTxEzAkJo,https://goldengolfmart.business.site/,"320 W Valley Blvd, San Gabriel, CA 91776, USA",Golden Golf Mart,not_found,false
490,Greater Golf Training Center,225 Harrison Ave,"Endicott, NY 13760-5146",Endicott,NY,UNITED STATES,13760-5146,607-484-0147,true,true,-76.053266,42.098856,2019-03-18 14:14:44 UTC,2019-03-28 12:59:13 UTC,ChIJ9Sg8XJDs2okR7Oznib_bK8w,http://greatergolf.net/,"225 Harrison Ave, Endicott, NY 13760, USA",Greater Golf Enterprises,not_found,false
492,Baltusrol Golf Club Pro Shop,201 Shunpike Rd,"Springfield, NJ 07081-2159",Springfield,NJ,UNITED STATES,07081-2159,973-921-3701 ,true,true,-74.32799,40.70502,2019-03-18 14:14:44 UTC,2019-03-28 12:59:33 UTC,ChIJV1J8Shauw4kR8qFoe_w6iz8,http://www.baltusrol.org/,"201 Shunpike Rd, Springfield Township, NJ 07081, USA",Baltusrol Golf Club,not_found,false
495,Golf Trader,8085 W Mcnab Rd,"Tamarac, FL 33321-3254",Tamarac,FL,UNITED STATES,33321-3254,954-720-8290,true,true,-80.258998,26.208378,2019-03-18 14:14:44 UTC,2019-03-28 12:59:38 UTC,ChIJjdLwkZQF2YgRsSFuUoObr0E,http://golftraderonline.com/,"8085 W McNab Rd, Tamarac, FL 33321, USA",Golf Trader,not_found,false
